X,RecordID_ALA,COLLECTION.ID,CatalogNumber,Collection,SpeciesName,MonthCapture,YearCapture,LongitudeClim,LatitudeClim,Longitude,Latitude,distance2coast_m,elevation,IBRA_REG_CODE_7,IBRA_REG_NAME_7
1145,0054f8fe-c3cd-405f-b1ab-196e6b8b958e,A20174,A20174,WAM,Malurus lamberti,3,1986,126.566667,-18.133333,126.566667,-18.133333,273493.7531,358.8266907,CEK,Central Kimberley
7197,00a2d242-0745-47dc-9739-1ce19efc9b3c,B52193,B52193,ANWC,Malurus lamberti,8,2007,131.5667,-30.1544,131.5667,-30.1544,149854.718,287.884613,GVD,Great Victoria Desert
5716,00adaf10-151a-43ae-a812-b458666acf8b,A13865,A13865,WAM,Malurus lamberti,7,1975,128.083333,-19.233333,128.083333,-19.233333,415401.2428,315.7370911,TAN,Tanami
7156,00b306cd-cd03-433f-8423-f37c75ae4e66,G31474,G31474,ANWC,Malurus lamberti,7,2009,134.192,-14.761,134.192,-14.761,132570,56.27629089,GFU,Gulf Fall and Uplands
7161,00c52ac0-c1d3-4192-9d3c-3476fef096d3,G31512,G31512,ANWC,Malurus lamberti,7,2009,133.728,-14.17,133.728,-14.17,191864.83,164.585907,GFU,Gulf Fall and Uplands
1713,00db616f-2acf-469c-b218-895ca760dd78,A20430,A20430,WAM,Malurus lamberti,4,1986,129.583333,-15.95,129.583333,-15.95,89760,190.7406006,VIB,Victoria Bonaparte
8453,029a5ca9-7c60-47a4-b672-89eb5ebc3eb3,B50556,B50556,ANWC,Malurus lamberti,9,2004,123.6261,-17.7086,123.6261,-17.7086,24494.61165,1.940161943,DAL,Dampierland
12969,029ed22f-9e51-4c22-84f8-b8d118bd3577,B40926,B40926,ANWC,Malurus lamberti,12,1987,150.6333,-34.9333,150.6333,-34.9333,14730,17.71093941,SYB,Sydney Basin
8455,02c0a1da-16d2-4d69-b255-62913930aad0,O.46731,O.46731,AM,Malurus lamberti,9,1978,139.35,-25.9,139.35,-25.9,763663.5167,45.99966049,CHC,Channel Country
2760,032c2e6f-0dfd-4ab1-a805-15ba0d4231f0,O30434,O30434,QM,Malurus lamberti,5,1994,143.233333,-24.116667,143.233333,-24.116667,650171.7654,180.513504,MGD,Mitchell Grass Downs
2765,0350c067-74b2-4c4f-affe-268b78f70085,A26061,A26061,WAM,Malurus lamberti,5,1995,114.416667,-26.183333,114.416667,-26.183333,18516.51425,41.95684052,CAR,Carnarvon
8461,03ef596d-bf1c-4301-8218-cdf9f76740a9,B40172,B40172,ANWC,Malurus lamberti,9,1985,138.2833,-30.0667,138.2833,-30.0667,286621.3816,92.188797,STP,Stony Plains
4577,041bcaf7-53c4-4938-b789-576a00a2fb0e,G6363,G6363,ANWC,Malurus lamberti,5,2002,133.115,-25.2233,133.115,-25.2233,725647.0622,414.2562866,FIN,Finke
11702,04662579-6ed6-4500-a188-cd74c4083dbb,G32247,G32247,ANWC,Malurus lamberti,10,2010,151.2253,-28.6178,151.2253,-28.6178,214880.2562,374.7987976,NAN,Nandewar
9813,0641ca7d-2154-48c6-867f-1394e3d5f30a,B20685,B20685,ANWC,Malurus lamberti,10,1994,137.1631,-35.0978,137.1631,-35.0978,14730,81.91927338,EYB,Eyre Yorke Block
8471,065fa069-6246-482d-9360-157fa1ae22e5,O29062,O29062,QM,Malurus lamberti,9,1990,125.183333,-16.983333,125.183333,-16.983333,75900.46245,404.1159973,CEK,Central Kimberley
2785,07679951-eaea-47be-b7c8-dd84c9782b20,A15664,A15664,WAM,Malurus lamberti,5,1978,127.883333,-18.233333,127.883333,-18.233333,308706.2275,384.0317993,OVP,Ord Victoria Plain
11687,0795e393-1524-42d5-9b33-b80f08f9511a,ABTC113310,ABTC113310,ABTC,Malurus lamberti assimilis,10,2005,139.4861,-34.3422,139.4861,-34.3422,101218.363,80.13612366,MDD,Murray Darling Depression
20,07cd8e9f-94be-4b18-a7f0-cb6f5dcad8aa,A8863,A8863,WAM,Malurus lamberti,1,1960,115.5,-30.66667,115.5,-30.66667,33260.42844,157.6927948,GES,Geraldton Sandplains
2795,08168a9c-9124-469b-be26-85b14fb4d731,A15613,A15613,WAM,Malurus lamberti,5,1978,130.95,-15.55,130.95,-15.55,141614.9611,38.63225174,VIB,Victoria Bonaparte
11706,081a1336-2abb-4a74-9372-c734091b5454,G32249,G32249,ANWC,Malurus lamberti,10,2010,149.2043,-28.3982,149.2043,-28.3982,397617.8619,216.9626007,BBS,Brigalow Belt South
4630,083d4cfa-81a8-43c5-b704-d8642a4f5e29,B00654,B00654,ANWC,Malurus lamberti,6,1961,150.4667,-24.3,150.4667,-24.3,90475.89734,160.002594,BBS,Brigalow Belt South
5747,0866dc42-372d-438f-bb30-71da4e891ef8,A13868,A13868,WAM,Malurus lamberti,7,1975,128.083333,-19.233333,128.083333,-19.233333,415401.2428,315.7370911,TAN,Tanami
12943,0a1a9ef8-f8f9-470a-95fb-c7eda9d94346,G32343,G32343,ANWC,Malurus lamberti,11,2011,151.2307,-28.6106,151.2307,-28.6106,214880.2562,382.2504883,NAN,Nandewar
4639,0a21f4df-c505-4ff3-adff-ccbec9123869,A14943,A14943,WAM,Malurus lamberti,6,1976,145.187222,-20.782778,145.187222,-20.782778,229222.7956,495.9697876,DEU,Desert Uplands
11746,0a2b3551-708a-4b76-b298-cae81d0f5a3a,G40538,G40538,ANWC,Malurus lamberti,10,2015,132.422,-13.429,132.422,-13.429,117810,202.4588013,ARP,Arnhem Plateau
7148,0a2da563-8df0-4972-99cf-8a2f3f439021,G31933,G31933,ANWC,Malurus lamberti,7,2010,127.9829,-16.429,127.9829,-16.429,106703.0281,174.842804,VIB,Victoria Bonaparte
7154,0a6d7ff2-deea-42ce-94c7-2fdb276f320d,G31209,G31209,ANWC,Malurus lamberti,7,2009,136.469,-15.692,136.469,-15.692,0,1.574169993,GUC,Gulf Coastal
7227,0a7b9c2a-5330-4955-9739-59b6b40ada16,O10052,O10052,QM,Malurus lamberti,8,1964,139.516667,-20.6,139.516667,-20.6,321592.4334,314.4706116,MII,Mount Isa Inlier
7228,0a8291ad-d8f8-4677-b043-d1a556035bfe,B48226,B48226,ANWC,Malurus lamberti,8,1996,139.5664,-31.1189,139.5664,-31.1189,232822.9991,24.12895012,BHC,Broken Hill Complex
7229,0a9c1a47-bd96-49c1-ac66-ad2c825aea6c,A14597,A14597,WAM,Malurus lamberti,8,1976,123.716667,-18.883333,123.716667,-18.883333,153446.6142,202.406601,GSD,Great Sandy Desert
11708,0ad38dd5-5f3e-4999-9833-9d7a2c782ba8,G32250,G32250,ANWC,Malurus lamberti,10,2010,149.0518,-28.3577,149.0518,-28.3577,411373.2015,209.853302,BBS,Brigalow Belt South
9844,0ae2e56c-bbae-416b-bd83-0f83a46d5541,B49438,B49438,ANWC,Malurus lamberti,10,1997,141.2942,-31.1583,141.2942,-31.1583,362140.7418,138.8618011,BHC,Broken Hill Complex
2817,0ae36488-2114-407e-a870-867d0e4d1c58,A15651,A15651,WAM,Malurus lamberti,5,1978,128.033333,-18.233333,128.033333,-18.233333,308589.0643,275.4350891,OVP,Ord Victoria Plain
1746,0b2fbb74-9a78-444b-9710-a5dae52cd20f,A13009,A13009,WAM,Malurus lamberti,4,1974,122.133333,-19.333333,122.133333,-19.333333,67856.92301,84.1115036,GSD,Great Sandy Desert
4646,0b4e3f0f-b967-4b71-8815-4d9473234d03,B18857,B18857,ANWC,Malurus lamberti,6,1976,136.1833,-16.6,136.1833,-16.6,96917.76824,60.71355057,GFU,Gulf Fall and Uplands
4648,0ba0f366-b027-4e20-b73e-f98df2169457,O11784,O11784,QM,Malurus lamberti,6,1971,153.183333,-27.516667,153.183333,-27.516667,7455.212941,18.82164955,SEQ,South Eastern Queensland
2827,0c0496c9-f1d9-48c0-b59b-3f7bc3c22773,A15657,A15657,WAM,Malurus lamberti,5,1978,127.966667,-18.233333,127.966667,-18.233333,308550,327.0255127,OVP,Ord Victoria Plain
8415,0c5633d7-ecf8-4436-8db3-291df117399e,G31058,G31058,ANWC,Malurus lamberti,8,2008,126.0433,-28.0342,126.0433,-28.0342,467283.8701,395.9198914,GVD,Great Victoria Desert
7142,0cea8d39-fbf2-4419-853d-bf9e7bc80ac2,G32188,G32188,ANWC,Malurus lamberti,7,2010,128.6945,-18.1345,128.6945,-18.1345,300873.5297,337.7535095,OVP,Ord Victoria Plain
1169,0d07facd-dfc3-4e23-8110-3caffe855a34,A20194,A20194,WAM,Malurus lamberti,3,1986,125.85,-16.8,125.85,-16.8,124211.1046,461.5606995,CEK,Central Kimberley
5775,0e3d4afe-4c5d-4ac1-aeaa-b002c22b17b7,A18070,A18070,WAM,Malurus lamberti,7,1983,137.366667,-35.683333,137.366667,-35.683333,7455.212941,93.13352203,KAN,Kanmantoo
9871,0e5c7faf-f4bc-48ce-af5d-991351a59bbb,B49358,B49358,ANWC,Malurus lamberti,10,1997,145.7606,-29.9222,145.7606,-29.9222,656184.4973,102.9981003,MUL,Mulga Lands
11736,0e62921c-1579-4c26-bbab-3b5c5289e7f7,G40525,G40525,ANWC,Malurus lamberti,10,2015,132.426,-13.437,132.426,-13.437,117810,267.9241028,ARP,Arnhem Plateau
5778,0ed9d536-ed5e-4853-a6ef-1f0c1c82ea81,B55435,B55435,ANWC,Malurus lamberti,7,2010,128.759,-18.107,128.759,-18.107,303426.761,358.9408875,OVP,Ord Victoria Plain
9876,0f15b1a1-0fdf-46af-8cfe-c67f4d77fadc,B29338,B29338,ANWC,Malurus lamberti,10,2001,139.5917,-17.7333,139.5917,-17.7333,24494.61165,2.078464031,GUP,Gulf Plains
2844,0f23ddb3-5076-4cfb-a182-a6f646a42708,A15628,A15628,WAM,Malurus lamberti,5,1978,128.35,-16,128.35,-16,65791.38925,364.3815002,VIB,Victoria Bonaparte
2851,0fb2612d-9587-4f5b-a2da-de1cde46226a,A15629,A15629,WAM,Malurus lamberti,5,1978,130.683333,-16.033333,130.683333,-16.033333,144096.3473,114.8569031,OVP,Ord Victoria Plain
9883,0fb70e1d-c3ca-4300-857c-5b747f7df919,A15050,A15050,WAM,Malurus lamberti,10,1977,127.083333,-17.333333,127.083333,-17.333333,234710.3585,501.7734985,CEK,Central Kimberley
43,116e3bd2-f1b2-41bd-9b1d-31fcf27ddba1,B15922,B15922,ANWC,Malurus lamberti,1,1973,132.4667,-13.4667,132.4667,-13.4667,123517.6283,160.5357056,ARP,Arnhem Plateau
1181,119f9f8f-4be2-48dd-b890-c588e0c9a8e5,A20169,A20169,WAM,Malurus lamberti,3,1986,125.85,-16.8,125.85,-16.8,124211.1046,461.5606995,CEK,Central Kimberley
7120,11a7312d-fbb1-4f1a-b8e3-3426c4e5d2b3,ABTC119512,ABTC119512,ABTC,Malurus lamberti,7,2007,130.0892,-29.8947,130.0892,-29.8947,190740,153.3574982,GVD,Great Victoria Desert
7252,123eb3fd-a8bc-406a-8adc-3ab4ee6232fa,O11265,O11265,QM,Malurus lamberti,8,1969,152.45,-26.75,152.45,-26.75,67659.6076,418.5191956,SEQ,South Eastern Queensland
1186,125dcd80-a6dc-4605-9ef6-b04896fbd548,A20164,A20164,WAM,Malurus lamberti,3,1986,125.95,-16.666944,125.95,-16.666944,129617.2411,398.0091858,CEK,Central Kimberley
1774,128160c8-6e71-49a8-a92a-0563d0450fcd,B47876,B47876,ANWC,Malurus lamberti,4,1996,141.9128,-29.7436,141.9128,-29.7436,504465.8857,129.5075073,CHC,Channel Country
5791,12bdb2ca-c156-4c96-8681-d8d5fcb5448d,B54779,B54779,ANWC,Malurus lamberti,7,2009,133.609,-15.856,133.609,-15.856,223460.0369,180.767395,STU,Sturt Plateau
7157,1343e762-81af-4ebf-9fef-18eebea4fe5c,G29479,G29479,ANWC,Malurus lamberti,7,2009,134.192,-14.761,134.192,-14.761,132570,56.27629089,GFU,Gulf Fall and Uplands
7259,137984ca-f2f6-4770-ae56-44a999813565,B54028,B54028,ANWC,Malurus lamberti,8,2008,128.4172,-29.5719,128.4172,-29.5719,242875.1753,209.3856049,NUL,Nullarbor
7261,13e8fddd-b007-4599-af5e-78753fe496ba,B54145,B54145,ANWC,Malurus lamberti,8,2008,128.1242,-28.4664,128.1242,-28.4664,370961.9195,349.9440918,GVD,Great Victoria Desert
2877,14078a84-43a7-4239-81c8-9df95bbdc88b,A15652,A15652,WAM,Malurus lamberti,5,1978,128.033333,-18.233333,128.033333,-18.233333,308589.0643,275.4350891,OVP,Ord Victoria Plain
1780,140f63dc-88d7-45b1-be77-285a33ed9392,B47875,B47875,ANWC,Malurus lamberti,4,1996,141.9128,-29.7436,141.9128,-29.7436,504465.8857,129.5075073,CHC,Channel Country
9908,14463bdd-e9e1-43a1-aef1-6e939d0b475c,B55473,B55473,ANWC,Malurus lamberti,10,2010,151.2253,-28.6178,151.2253,-28.6178,214880.2562,374.7987976,NAN,Nandewar
8412,153f69e4-7a80-4dfa-8fc6-9765613cb5de,G31049,G31049,ANWC,Malurus lamberti,8,2008,126.1844,-28.3039,126.1844,-28.3039,438268.1358,389.6064148,GVD,Great Victoria Desert
2897,170f3806-fa2c-40e2-97cd-aaa8333a6481,A15669,A15669,WAM,Malurus lamberti,5,1978,128.933333,-18.033333,128.933333,-18.033333,298851.0032,386.8828125,OVP,Ord Victoria Plain
7276,177f1a76-2dc2-4c1a-9481-cb5ddccc1b32,B54256,B54256,ANWC,Malurus lamberti,8,2008,125.9081,-28.2997,125.9081,-28.2997,440900.5971,325.2197876,GVD,Great Victoria Desert
7278,1793a064-2da1-422d-92c0-69c68d738b07,B54097,B54097,ANWC,Malurus lamberti,8,2008,128.5947,-29.5733,128.5947,-29.5733,239728.0553,210.5865021,NUL,Nullarbor
4575,1826ef30-1855-4fe3-beaa-80c94f8ab5d8,G6328,G6328,ANWC,Malurus lamberti,5,2002,133.1292,-26.4672,133.1292,-26.4672,591213.2411,436.1281128,FIN,Finke
5815,186b8f9c-1b0e-4ffb-b865-8bceb4f062ef,B55399,B55399,ANWC,Malurus lamberti,7,2010,127.7076,-18.9261,127.7076,-18.9261,382269.1367,359.7543945,OVP,Ord Victoria Plain
4699,191193f6-a02e-4634-ab76-88d6263f38e8,O.39903,O.39903,AM,Malurus lamberti,6,1961,130.283,-26.133,130.283,-26.133,601191.7664,762.2938843,CER,Central Ranges
9940,19648f3a-9d06-41c5-b7a4-c7ce1ce61bf0,B46569,B46569,ANWC,Malurus lamberti,10,1994,137.2483,-35.0675,137.2483,-35.0675,11220,53.7720108,EYB,Eyre Yorke Block
2916,1a2ec79e-5639-460e-b607-f541212ad0c3,O30435,O30435,QM,Malurus lamberti,5,1994,143.233333,-24.116667,143.233333,-24.116667,650171.7654,180.513504,MGD,Mitchell Grass Downs
2917,1a50c920-b210-468f-b368-68ceb06a7ebc,A15623,A15623,WAM,Malurus lamberti,5,1978,129.766944,-15.466944,129.766944,-15.466944,34016.22701,9.693307877,VIB,Victoria Bonaparte
8560,1ae2ee04-66d0-4266-b0aa-10f5a2154917,B40061,B40061,ANWC,Malurus lamberti,9,1985,142.1667,-28.8,142.1667,-28.8,591279.2202,82.92456055,CHC,Channel Country
4709,1c152fe8-b4cd-4120-a383-9aba0e3fd54b,B39199,B39199,ANWC,Malurus lamberti,6,1985,153,-30.8667,153,-30.8667,4910,4.005615234,NNC,NSW North Coast
1203,1c346916-2e6f-4da6-85fa-9a3c6aa96138,A20186,A20186,WAM,Malurus lamberti,3,1986,124.983333,-17.333333,124.983333,-17.333333,105189.6002,104.3380966,CEK,Central Kimberley
627,1cb0bac3-349d-40ae-a4b3-7d076f69a4bc,G23475,G23475,ANWC,Malurus lamberti,1,1995,153.4178,-28.5817,153.4178,-28.5817,45147.78511,305.9490051,SEQ,South Eastern Queensland
4711,1cdd5e93-36a5-4032-8444-f365f6eea1de,B39302,B39302,ANWC,Malurus lamberti,6,1985,152.6167,-26.6833,152.6167,-26.6833,49100,399.8071899,SEQ,South Eastern Queensland
11874,1cf14f26-830c-4e22-a785-b1891d2e8cd6,A9479,A9479,WAM,Malurus lamberti,11,1964,114.45,-27.095,114.45,-27.095,48267.18243,179.5155029,YAL,Yalgoo
7162,1d762595-6dd6-4f67-9926-66fd8645b043,G31511,G31511,ANWC,Malurus lamberti,7,2009,133.728,-14.17,133.728,-14.17,191864.83,164.585907,GFU,Gulf Fall and Uplands
9730,1de0d5d6-62ce-4bc7-b772-bf8672153a21,ABTC73791,ABTC73791,ABTC,Malurus lamberti assimilis,9,1999,134.8106,-26.9828,134.8106,-26.9828,586287.305,187.7335052,FIN,Finke
2938,1e19d6f4-0776-4e8c-8ac5-6edea0d38fb1,A15644,A15644,WAM,Malurus lamberti,5,1978,130.966667,-17.483333,130.966667,-17.483333,292396.5013,216.2207947,OVP,Ord Victoria Plain
11733,1e32da8c-f4f5-429f-b2ad-971c3290b703,G40543,G40543,ANWC,Malurus lamberti,10,2015,132.427,-13.514,132.427,-13.514,129030,225.8518982,ARP,Arnhem Plateau
8408,20699095-e143-40b8-a364-d47a895a862b,G30916,G30916,ANWC,Malurus lamberti,8,2008,128.1242,-28.4664,128.1242,-28.4664,370961.9195,349.9440918,GVD,Great Victoria Desert
2956,2077bcd6-0533-4ace-b8ee-a8b01a9c3b95,B33181,B33181,ANWC,Malurus lamberti,5,2002,117.3889,-22.9406,117.3889,-22.9406,247620.1026,389.6250916,PIL,Pilbara
629,218ddaa5-e27c-428e-8ce0-be99432d6b38,G23427,G23427,ANWC,Malurus lamberti,1,1995,153.1894,-28.4625,153.1894,-28.4625,48107.09407,138.6867981,SEQ,South Eastern Queensland
13014,220bf40e-3a5a-4547-a46c-2b1616c72e3d,A9480,A9480,WAM,Malurus lamberti,12,1964,113.975,-26.436944,113.975,-26.436944,7455.212941,33.08884811,YAL,Yalgoo
9736,22231814-3571-4792-b179-49907093d435,ABTC38831,ABTC38831,ABTC,Malurus lamberti assimilis,9,1998,137.3633,-26.3811,137.3633,-26.3811,695709.3085,31.3708992,SSD,Simpson Strzelecki Dunefields
11689,22b586c2-982a-406a-98a7-9d33551de782,G22741,G22741,ANWC,Malurus lamberti,10,1994,139.4875,-34.0856,139.4875,-34.0856,117383.4831,78.91204834,MDD,Murray Darling Depression
11729,22ba3cd8-b143-4702-970c-d5807ac1a906,G40549,G40549,ANWC,Malurus lamberti,10,2015,132.455,-13.526,132.455,-13.526,129123.3867,149.0065002,ARP,Arnhem Plateau
2972,22ca70cf-462e-463a-b029-9cfb7297daea,A15668,A15668,WAM,Malurus lamberti,5,1978,128.933333,-18.033333,128.933333,-18.033333,298851.0032,386.8828125,OVP,Ord Victoria Plain
1212,22f460fe-64b6-40b5-8653-55d513ec1741,A20197,A20197,WAM,Malurus lamberti,3,1986,125.3,-17.166667,125.3,-17.166667,102726.7682,425.6648865,CEK,Central Kimberley
4737,233d754b-9b54-4c8e-87fb-72e20b2522c4,A14365,A14365,WAM,Malurus lamberti,6,1975,126.766667,-14.166667,126.766667,-14.166667,11309.48717,52.21757889,NOK,Northern Kimberley
1213,23b64a8d-234c-455a-81e4-5badf251ebe5,A20158,A20158,WAM,Malurus lamberti,3,1986,126.182778,-16.3,126.182778,-16.3,148132.114,534.6223755,NOK,Northern Kimberley
4742,23cb7415-91dd-492f-b3aa-3a5fe4096a32,B00653,B00653,ANWC,Malurus lamberti,6,1961,150.15,-25.1667,150.15,-25.1667,181283.6234,153.652298,BBS,Brigalow Belt South
8601,244bf14a-ef51-4f4c-837e-d17723939eb9,B40056,B40056,ANWC,Malurus lamberti,9,1985,142.1667,-28.8,142.1667,-28.8,591279.2202,82.92456055,CHC,Channel Country
8606,24f880fb-5e92-4129-bd8d-74386f8dd255,B40218,B40218,ANWC,Malurus lamberti,9,1985,134.25,-24.9,134.25,-24.9,793391.1512,344.8635864,FIN,Finke
4573,250301bc-9794-4926-b145-802394487f25,G6415,G6415,ANWC,Malurus lamberti,5,2002,125.5128,-26.7461,125.5128,-26.7461,613786.4567,433.6838074,GID,Gibson Desert
87,2511f18f-9961-4a77-b061-48a9890e0c14,B46883,B46883,ANWC,Malurus lamberti,1,1995,153.405,-28.5789,153.405,-28.5789,45147.78511,334.482605,SEQ,South Eastern Queensland
7342,25a6457b-d6d3-4ecc-93c0-0f66044f5f32,O27370,O27370,QM,Malurus lamberti,8,1986,139.883333,-18.216667,139.883333,-18.216667,58001.5767,12.02423954,GUP,Gulf Plains
8409,25eb2b90-9267-4c26-9d3b-787e0b607891,G30917,G30917,ANWC,Malurus lamberti,8,2008,128.1242,-28.4664,128.1242,-28.4664,370961.9195,349.9440918,GVD,Great Victoria Desert
8616,279647c7-0c35-4057-82eb-a6c611cc582a,A35583,A35583,WAM,Malurus lamberti,9,2004,115.569722,-22.119722,115.569722,-22.119722,63364.82936,146.3050995,PIL,Pilbara
11686,27ecdca4-60c0-43f4-8ec4-6648374e73e8,ABTC113311,ABTC113311,ABTC,Malurus lamberti assimilis,10,2005,139.4911,-34.3481,139.4911,-34.3481,101218.363,81.03027344,MDD,Murray Darling Depression
96,28fcd36c-ff08-4e7e-8979-1fc998f9785c,B46877,B46877,ANWC,Malurus lamberti,1,1995,153.4178,-28.5817,153.4178,-28.5817,45147.78511,305.9490051,SEQ,South Eastern Queensland
8625,291534c3-dfa2-4cd5-8a75-be4f6384d4a6,B36874,B36874,ANWC,Malurus lamberti,9,1980,144.7667,-33.7,144.7667,-33.7,466561.0233,89.74429321,RIV,Riverina
11697,296e6e8b-3a9b-4ad2-9806-51d324463a77,G26160,G26160,ANWC,Malurus lamberti,10,1997,145.7606,-29.9222,145.7606,-29.9222,656184.4973,102.9981003,MUL,Mulga Lands
10045,29b289b4-d118-4842-adfa-35d9530f0548,B19663,B19663,ANWC,Malurus lamberti,10,1977,120.25,-26.6333,120.25,-26.6333,594771.8004,499.817688,MUR,Murchison
8628,29d2790d-f3ab-4184-bd2e-4c2bea291e51,O27578,O27578,QM,Malurus lamberti,9,1986,142.616667,-18.783333,142.616667,-18.783333,243868.8685,175.4008942,GUP,Gulf Plains
7359,29f64968-4a53-49c5-aaea-44040aad1048,A12688,A12688,WAM,Malurus lamberti,8,1973,128.9,-25.016944,128.9,-25.016944,742806.185,647.8850708,CER,Central Ranges
11693,2a18aac7-a260-4f95-bbb1-19e134249884,G32480,G32480,ANWC,Malurus lamberti,10,2012,152.243,-31.8241,152.243,-31.8241,37033.0285,60.38249969,NNC,NSW North Coast
9740,2a2be9be-0a29-42b0-bd67-337e1b0a4cc0,ABTC38802,ABTC38802,ABTC,Malurus lamberti,9,1998,137.6036,-26.0417,137.6036,-26.0417,734975.6054,26.7509594,SSD,Simpson Strzelecki Dunefields
11742,2abffe57-4f7e-4b5f-a89c-7a4066020ffb,G40531,G40531,ANWC,Malurus lamberti,10,2015,132.419,-13.431,132.419,-13.431,117810,100.7722015,ARP,Arnhem Plateau
10056,2b957013-6c5a-4b50-b4f9-8010922aede8,A20690,A20690,WAM,Malurus lamberti,10,1986,119.7,-27.133333,119.7,-27.133333,521338.3592,522.8123779,MUR,Murchison
10057,2b9f0c71-7edf-44cc-9efd-836e382bf58a,B29377,B29377,ANWC,Malurus lamberti,10,2001,139.8,-17.625,139.8,-17.625,5610,0.9631688,GUP,Gulf Plains
3034,2c0c88f0-b473-42f9-85ad-b5fff5f4713c,A15661,A15661,WAM,Malurus lamberti,5,1978,127.966667,-18.233333,127.966667,-18.233333,308550,327.0255127,OVP,Ord Victoria Plain
12950,2c3f524c-0378-4096-a2a8-a8114e301f76,G32352,G32352,ANWC,Malurus lamberti,11,2011,150.879,-28.5364,150.879,-28.5364,250395.8838,283.6929016,BBS,Brigalow Belt South
1221,2c6eb098-0e9b-4ff9-be63-cef32fddcff8,A20168,A20168,WAM,Malurus lamberti,3,1986,125.95,-16.666944,125.95,-16.666944,129617.2411,398.0091858,CEK,Central Kimberley
5902,2d0a2675-b6a8-4061-a463-2426e0147192,B39927,B39927,ANWC,Malurus lamberti,7,1985,142.7667,-23.25,142.7667,-23.25,598894.8831,253.222702,CHC,Channel Country
8656,2d96f570-35c6-4197-bdab-57e170a658c0,B50538,B50538,ANWC,Malurus lamberti,9,2004,123.6261,-17.7086,123.6261,-17.7086,24494.61165,1.940161943,DAL,Dampierland
8659,2dd3166f-02d2-4a29-b0ee-1d7a3eed6208,O.45869,O.45869,AM,Malurus lamberti,9,1976,141.7,-31.083,141.7,-31.083,400425.8303,177.7026062,BHC,Broken Hill Complex
8664,2e4958cb-7582-4ef5-b2c7-98f7c3105e43,B40263,B40263,ANWC,Malurus lamberti,9,1985,133.85,-23.5167,133.85,-23.5167,880456.1223,723.9998779,BRT,Burt Plain
8666,2e69fb7c-c1d0-4779-bc75-82091f98765d,O29065,O29065,QM,Malurus lamberti,9,1990,125.183333,-16.983333,125.183333,-16.983333,75900.46245,404.1159973,CEK,Central Kimberley
7146,2f09b033-b1b3-4379-8637-27fc3ca784eb,G31900,G31900,ANWC,Malurus lamberti,7,2010,127.9837,-16.4463,127.9837,-16.4463,106703.0281,180.0895996,VIB,Victoria Bonaparte
3062,2f396298-8a84-43ea-bbd1-e884e1b90928,A15666,A15666,WAM,Malurus lamberti,5,1978,127.883333,-18.233333,127.883333,-18.233333,308706.2275,384.0317993,OVP,Ord Victoria Plain
11681,2f7eeca8-9988-4ab7-add5-7047ee9f1901,G22929,G22929,ANWC,Malurus lamberti,10,1994,137.2483,-35.0675,137.2483,-35.0675,11220,53.7720108,EYB,Eyre Yorke Block
5911,2f81eee4-1f15-471c-a0c5-ddc391c517a0,B54740,B54740,ANWC,Malurus lamberti,7,2009,133.741,-14.172,133.741,-14.172,191864.83,125.0743027,GFU,Gulf Fall and Uplands
4794,3021a672-e8fd-4f54-9614-0a6a4515f63b,B00652,B00652,ANWC,Malurus lamberti,6,1961,151.4667,-26.7833,151.4667,-26.7833,159704.1455,600.5554199,BBS,Brigalow Belt South
7136,3059fbfc-464d-4ace-b97f-65a00056157c,G32028,G32028,ANWC,Malurus lamberti,7,2010,126.0972,-18.7338,126.0972,-18.7338,287328.5132,291.7756042,OVP,Ord Victoria Plain
1233,3063b751-8290-4eac-a458-1e882f4add7f,A20179,A20179,WAM,Malurus lamberti,3,1986,124.983333,-17.333333,124.983333,-17.333333,105189.6002,104.3380966,CEK,Central Kimberley
11949,3085d0fd-8fe3-4289-9dfb-1d73e58be9fc,B49626,B49626,ANWC,Malurus lamberti,11,1998,147.085,-34.0167,147.085,-34.0167,343792.689,282.0733032,NSS,NSW South Western Slopes
10082,30a194b2-6b36-4564-a6ca-6ae3a23b2afe,O.55365,O.55365,AM,Malurus lamberti,10,1979,142.333,-34.133,142.333,-34.133,305875.3231,59.34920883,MDD,Murray Darling Depression
10087,3105ca5d-9b70-4cc7-8a0d-8be6243eaf17,B55472,B55472,ANWC,Malurus lamberti,10,2010,151.7697,-28.7205,151.7697,-28.7205,161189.2456,870.3942871,NAN,Nandewar
11952,317375a9-3867-4e91-a4fc-3888553daad3,A16850,A16850,WAM,Malurus lamberti,11,1979,115.883333,-29.816667,115.883333,-29.816667,86433.75787,247.0032959,AVW,Avon Wheatbelt
8396,31c00e04-ca1e-426c-ab0a-0143f52de319,G24244,G24244,ANWC,Malurus lamberti,8,1996,139.3111,-30.4658,139.3111,-30.4658,275812.4076,190.5733948,FLB,Flinders Lofty Block
10101,323c30e5-8be7-4b04-9236-424943ed7c7e,A20685,A20685,WAM,Malurus lamberti,10,1986,114.45,-27.283333,114.45,-27.283333,38269.38463,181.1773071,GES,Geraldton Sandplains
5919,32d5e6bf-14da-4591-bf69-5889acf136cc,A13867,A13867,WAM,Malurus lamberti,7,1975,128.083333,-19.233333,128.083333,-19.233333,415401.2428,315.7370911,TAN,Tanami
3086,335c819c-c4c8-47ca-807e-4e77af259314,B33205,B33205,ANWC,Malurus lamberti,5,2002,117.6447,-22.0247,117.6447,-22.0247,144399.9979,418.3505859,PIL,Pilbara
7126,33acaaea-8227-4955-b883-d03d30fd7986,G32064,G32064,ANWC,Malurus lamberti,7,2010,126.1069,-19.2103,126.1069,-19.2103,321489.5875,234.4696045,OVP,Ord Victoria Plain
11958,33bce121-7fc3-42f8-be6a-2cddc2cb7b96,B55503,B55503,ANWC,Malurus lamberti,11,2010,148.1329,-23.8655,148.1329,-23.8655,225641.663,237.5626984,BBN,Brigalow Belt North
10105,342e551d-2502-4d7d-bee1-47083936e50a,A15046,A15046,WAM,Malurus lamberti,10,1977,123.983333,-16.783333,123.983333,-16.783333,18516.51425,13.49549007,NOK,Northern Kimberley
11737,34519ba8-bbdf-471b-b99b-05ef24211dd0,G40534,G40534,ANWC,Malurus lamberti,10,2015,132.426,-13.437,132.426,-13.437,117810,267.9241028,ARP,Arnhem Plateau
1905,34a28b22-4b3a-490b-ab00-18ba8658aaa1,O.41475,O.41475,AM,Malurus lamberti,4,1965,132.766,-23.95,132.766,-23.95,855155.0351,579.5880737,MAC,MacDonnell Ranges
3107,35a4df78-1ca8-4671-9e36-e741cadebe12,B48005,B48005,ANWC,Malurus lamberti,5,1996,142.8686,-24.0222,142.8686,-24.0222,663513.9518,215.2763062,CHC,Channel Country
3109,35b38fb3-e5df-4717-99ca-c8295c61099e,B38005,B38005,ANWC,Malurus lamberti,5,1983,139.6333,-35.15,139.6333,-35.15,37033.0285,92.95871735,MDD,Murray Darling Depression
5931,35d43f76-7961-4ee5-b28f-2ca9942c60f4,B55127,B55127,ANWC,Malurus lamberti,7,2010,127.9837,-16.4463,127.9837,-16.4463,106703.0281,180.0895996,VIB,Victoria Bonaparte
5933,36186e58-c406-4bed-8a61-79ebc2a168db,B54435,B54435,ANWC,Malurus lamberti,7,2009,136.469,-15.692,136.469,-15.692,0,1.574169993,GUC,Gulf Coastal
9718,361bb16f-6d97-40a1-9532-183e9cff4e74,G4340,G4340,ANWC,Malurus lamberti,9,1999,145.4567,-32.5811,145.4567,-32.5811,544293.9027,160.0986023,MDD,Murray Darling Depression
13048,36796fe4-4825-435a-98f1-a7cdf9516369,B41361,B41361,ANWC,Malurus lamberti,12,1987,142.0333,-35.1333,142.0333,-35.1333,239126.0571,87.4283371,MDD,Murray Darling Depression
3117,372e7088-f11e-4658-acc7-276342cc83c5,A15635,A15635,WAM,Malurus lamberti,5,1978,131.032778,-16.55,131.032778,-16.55,211282.8694,76.46478271,OVP,Ord Victoria Plain
5940,37553342-94a8-470b-a27f-0869b3a84bd6,B13849,B13849,ANWC,Malurus lamberti,7,1971,132.8333,-12.8667,132.8333,-12.8667,71414.04694,56.47431946,PCK,Pine Creek
10130,37bbed9c-2d6c-482e-813a-70bf7f75b747,B29336,B29336,ANWC,Malurus lamberti,10,2001,139.5917,-17.7333,139.5917,-17.7333,24494.61165,2.078464031,GUP,Gulf Plains
3120,37caf331-2ee6-4e9a-90d4-1e0b9bb7f6e7,A15662,A15662,WAM,Malurus lamberti,5,1978,127.883333,-18.233333,127.883333,-18.233333,308706.2275,384.0317993,OVP,Ord Victoria Plain
7410,37fa775c-e07e-4613-a8c4-8e66e67f957d,A12687,A12687,WAM,Malurus lamberti,8,1973,119.266667,-30.25,119.266667,-30.25,370540.2813,514.5040283,COO,Coolgardie
11976,38144737-d73d-4161-9cce-de6bcc95e96c,O.53049,O.53049,AM,Malurus lamberti,11,1979,128.733,-15.766,128.733,-15.766,73934.56702,59.76517868,VIB,Victoria Bonaparte
10141,39fdfe6a-f8f5-45e2-bcd3-6c281f0b0ef9,B55476,B55476,ANWC,Malurus lamberti,10,2010,149.2043,-28.3982,149.2043,-28.3982,397617.8619,216.9626007,BBS,Brigalow Belt South
10149,3a95564c-1e9e-4d14-a9a2-fe87cf12472d,A20688,A20688,WAM,Malurus lamberti,10,1986,114.4,-28.116667,114.4,-28.116667,17531.60004,108.8578033,GES,Geraldton Sandplains
3142,3b126874-b76b-4aa0-9c36-32f33849b2cb,A13433,A13433,WAM,Malurus lamberti,5,1974,115.233611,-30.116944,115.233611,-30.116944,22365.63882,191.822998,GES,Geraldton Sandplains
4576,3b3c37d6-5174-4917-95d8-a2ba326c72a0,G7342,G7342,ANWC,Malurus lamberti,5,2002,114.0814,-25.4828,114.0814,-25.4828,7455.212941,9.869441032,CAR,Carnarvon
11743,3b3dc32e-346a-41e4-ada2-daf76a3502fa,G40533,G40533,ANWC,Malurus lamberti,10,2015,132.419,-13.431,132.419,-13.431,117810,100.7722015,ARP,Arnhem Plateau
1936,3b86e449-059a-4975-808e-be1a464146a1,A20709,A20709,WAM,Malurus lamberti,4,1986,123.933333,-16.683333,123.933333,-16.683333,22618.97434,62.53219986,NOK,Northern Kimberley
3147,3be3930a-31b9-4209-a07b-dcead40d8862,A15621,A15621,WAM,Malurus lamberti,5,1978,129.766944,-15.466944,129.766944,-15.466944,34016.22701,9.693307877,VIB,Victoria Bonaparte
12930,3c084a72-ec53-4578-a32d-dabc73076cb4,ABTC113234,ABTC113234,ABTC,Malurus lamberti assimilis,11,2004,139.4794,-34.3753,139.4794,-34.3753,99176.70946,80.77060699,MDD,Murray Darling Depression
7429,3caec8fb-63b5-4560-a0a0-7f08d2715255,O.66228,O.66228,AM,Malurus lamberti,8,1955,151.866,-29.183,151.866,-29.183,141540.6161,485.7210083,NET,New England Tablelands
5968,3d5bbf3e-8ed5-4339-ba0e-a537713bf1a1,B55256,B55256,ANWC,Malurus lamberti,7,2010,126.0343,-18.6768,126.0343,-18.6768,280157.4973,263.5488892,OVP,Ord Victoria Plain
8724,3da5748d-b1b6-480c-b489-f6371723507b,B40159,B40159,ANWC,Malurus lamberti,9,1985,139.5,-26.6833,139.5,-26.6833,685123.7384,13.10801983,CHC,Channel Country
8725,3db11faf-1cb8-4551-beff-75c35e14bf7b,A37114,A37114,WAM,Malurus lamberti,9,2005,118.65,-23.616667,118.65,-23.616667,342924.5631,529.4771118,GAS,Gascoyne
3157,3de103ed-6cf1-4cb4-8c49-c3665a4ccf53,B11722,B11722,ANWC,Malurus lamberti,5,1969,127.0833,-29.25,127.0833,-29.25,322492.3391,200.0158997,NUL,Nullarbor
4843,3df9dd87-1f6e-493a-b52d-b7adcb31f8c1,B17284,B17284,ANWC,Malurus lamberti,6,1974,137.6,-17.8667,137.6,-17.8667,141271.6674,194.5368958,GFU,Gulf Fall and Uplands
10178,3e457b43-62a9-4dac-a9bd-a2407c061ede,A20689,A20689,WAM,Malurus lamberti,10,1986,119.666667,-27.1,119.666667,-27.1,520460.6977,527.9036865,MUR,Murchison
8407,3efff341-7177-45fb-8931-d241a87c2019,G30904,G30904,ANWC,Malurus lamberti,8,2008,128.2333,-28.5339,128.2333,-28.5339,357695.3918,339.9645996,GVD,Great Victoria Desert
10186,3f662d5d-4589-4bc0-895c-4ea8e650d544,B46415,B46415,ANWC,Malurus lamberti,10,1994,143.5511,-34.6831,143.5511,-34.6831,374081.3593,65.07148743,MDD,Murray Darling Depression
5980,3f8053cf-c98c-4074-b19b-76e292429689,B39918,B39918,ANWC,Malurus lamberti,7,1985,142.7667,-23.25,142.7667,-23.25,598894.8831,253.222702,CHC,Channel Country
1265,3fccdc85-460b-4ebc-9fad-6d68c601d8a1,A20195,A20195,WAM,Malurus lamberti,3,1986,125.85,-16.8,125.85,-16.8,124211.1046,461.5606995,CEK,Central Kimberley
11748,3fcdd4d6-3a0e-48d4-b854-b36b552456d0,G40527,G40527,ANWC,Malurus lamberti,10,2015,132.424,-13.427,132.424,-13.427,117810,252.2875061,ARP,Arnhem Plateau
4850,3fcded3b-f7e3-42fe-9f75-4016522acc38,B39306,B39306,ANWC,Malurus lamberti,6,1985,152.6167,-26.6833,152.6167,-26.6833,49100,399.8071899,SEQ,South Eastern Queensland
12935,409e08db-00be-448a-a8f3-5523485905c3,ABTC85133,ABTC85133,ABTC,Malurus lamberti,11,1997,135.45,-32.3667,135.45,-32.3667,110326.2163,340.0235901,GAW,Gawler
10193,40a05f07-0c3e-4209-b4f8-c51dbe2d5a64,A20687,A20687,WAM,Malurus lamberti,10,1986,115.266667,-27.933333,115.266667,-27.933333,93385.83244,254.3798981,GES,Geraldton Sandplains
12959,40b32dc5-98a9-46ff-accd-c59ced00a79d,G32266,G32266,ANWC,Malurus lamberti,11,2010,148.1329,-23.8655,148.1329,-23.8655,225641.663,237.5626984,BBN,Brigalow Belt North
3171,41046e44-b0e3-4bb5-ba57-7ea17793ff1b,A15638,A15638,WAM,Malurus lamberti,5,1978,131.032778,-16.55,131.032778,-16.55,211282.8694,76.46478271,OVP,Ord Victoria Plain
1268,41078f0e-8976-4f16-90fd-fed10f8b21f0,A20189,A20189,WAM,Malurus lamberti,3,1986,125.046111,-17.382778,125.046111,-17.382778,111994.3079,137.0834961,CEK,Central Kimberley
1270,419365fe-8aa6-4f3e-8d9f-8726e9d9d854,A20172,A20172,WAM,Malurus lamberti,3,1986,125.85,-16.8,125.85,-16.8,124211.1046,461.5606995,CEK,Central Kimberley
3174,41ac4ba7-1899-4341-8477-f2772d742640,A15610,A15610,WAM,Malurus lamberti,5,1978,130.966667,-16.516389,130.966667,-16.516389,204557.8434,101.7001038,OVP,Ord Victoria Plain
12944,41cbd59e-e10c-4e9b-a4ce-02774d571137,G32345,G32345,ANWC,Malurus lamberti,11,2011,151.2107,-28.61,151.2107,-28.61,219157.1313,375.9753113,NAN,Nandewar
5999,42ddfaac-93b7-4555-8d05-adfe212cf7a3,B54739,B54739,ANWC,Malurus lamberti,7,2009,133.728,-14.17,133.728,-14.17,191864.83,164.585907,GFU,Gulf Fall and Uplands
11722,431cd664-9b48-4390-ae2b-2b6a0b8c865a,G2312,G2312,ANWC,Malurus lamberti,10,2001,139.8,-17.625,139.8,-17.625,5610,0.9631688,GUP,Gulf Plains
155,4377191a-5aac-4276-bf8b-547e720c8930,A8857,A8857,WAM,Malurus lamberti,1,1960,114.216667,-27.983056,114.216667,-27.983056,9820,99.74550629,GES,Geraldton Sandplains
3187,43abca49-e70e-4404-aeba-dd11686b1134,A15624,A15624,WAM,Malurus lamberti,5,1978,129.766944,-15.466944,129.766944,-15.466944,34016.22701,9.693307877,VIB,Victoria Bonaparte
1962,43b58a6d-2c05-442f-9e1b-2c9a1f8438cc,A20712,A20712,WAM,Malurus lamberti,4,1986,128.4,-17.532778,128.4,-17.532778,234216.4729,239.9544983,OVP,Ord Victoria Plain
6010,446f0912-5967-48f2-ae1e-11e6a42b092f,B55412,B55412,ANWC,Malurus lamberti,7,2010,128.6945,-18.1345,128.6945,-18.1345,300873.5297,337.7535095,OVP,Ord Victoria Plain
8763,45c511b0-1979-4401-9fda-df99edafbe2e,O.42547,O.42547,AM,Malurus lamberti,9,1967,152.916,-31.35,152.916,-31.35,0,9.106640816,NNC,NSW North Coast
10226,45fb52a9-3002-4d16-bd2a-edeb70030a78,A15044,A15044,WAM,Malurus lamberti,10,1977,123.666667,-16.583333,123.666667,-16.583333,4910,50.64247131,NOK,Northern Kimberley
3203,460c25e8-2d8c-4590-8f75-5bd3d7c567f9,A15611,A15611,WAM,Malurus lamberti,5,1978,130.899722,-15.666389,130.899722,-15.666389,139442.7682,71.64247131,VIB,Victoria Bonaparte
4876,461deb20-c935-4151-b077-e721b383f674,A15616,A15616,WAM,Malurus lamberti,6,1978,129.583333,-15.95,129.583333,-15.95,89760,190.7406006,VIB,Victoria Bonaparte
6018,46730e96-50eb-4dc9-842e-dc912d91aebf,A13957,A13957,WAM,Malurus lamberti,7,1975,125.316667,-18.5,125.316667,-18.5,206916.9495,84.0401535,DAL,Dampierland
13077,46747950-59d7-4a24-b5ad-66d1eed26e1e,A14434,A14434,WAM,Malurus lamberti,12,1975,119.566667,-23.266667,119.566667,-23.266667,337289.2944,887.1845093,PIL,Pilbara
11738,46e845ee-136e-488f-a01d-be0543e177ae,G40524,G40524,ANWC,Malurus lamberti,10,2015,132.426,-13.437,132.426,-13.437,117810,267.9241028,ARP,Arnhem Plateau
3210,478a299d-6047-46ad-9ff6-2312aa2977d5,A36783,A36783,WAM,Malurus lamberti,5,2005,125.2,-15.1,125.2,-15.1,0,148.9687042,NOK,Northern Kimberley
13080,47c12ae7-d999-497c-bf3b-955785a0f165,O.58212,O.58212,AM,Malurus lamberti,12,1982,141.916,-34.1,141.916,-34.1,273006.0237,30.41362,RIV,Riverina
10238,47d36c09-445c-43c4-afa9-19616dc1a6a5,B55474,B55474,ANWC,Malurus lamberti,10,2010,151.7697,-28.7205,151.7697,-28.7205,161189.2456,870.3942871,NAN,Nandewar
3212,47ee8705-1866-4864-b083-d28442782c11,B32774,B32774,ANWC,Malurus lamberti,5,2002,134.1861,-28.4108,134.1861,-28.4108,420018.4383,256.7723083,STP,Stony Plains
12942,48af3303-427a-4cc1-ad73-ddea1023f339,G32355,G32355,ANWC,Malurus lamberti,11,2011,151.237,-28.6107,151.237,-28.6107,214880.2562,391.0541077,NAN,Nandewar
11744,48ba6eb2-67e3-4efb-9089-9d02d73bda31,G40523,G40523,ANWC,Malurus lamberti,10,2015,132.419,-13.431,132.419,-13.431,117810,100.7722015,ARP,Arnhem Plateau
6032,4a1679f3-ef05-4a0f-873a-85c9d57a53a9,B40006,B40006,ANWC,Malurus lamberti,7,1985,142.9333,-22.5,142.9333,-22.5,532054.1484,202.5028992,MGD,Mitchell Grass Downs
12946,4aa31d00-513b-4252-bdfd-aad922943ed3,G32347,G32347,ANWC,Malurus lamberti,11,2011,151.2015,-28.6032,151.2015,-28.6032,219157.1313,393.2861023,NAN,Nandewar
7143,4ae7663a-59a1-4ece-9014-aab7386cd88e,G32189,G32189,ANWC,Malurus lamberti,7,2010,128.6945,-18.1345,128.6945,-18.1345,300873.5297,337.7535095,OVP,Ord Victoria Plain
12038,4aeaf95f-622a-42f2-81dc-786204baec2d,A9551,A9551,WAM,Malurus lamberti,11,1964,113.7,-26.682778,113.7,-26.682778,4910,18.12919044,YAL,Yalgoo
12041,4b127129-fa5d-410e-8a47-59a1dc17418d,A17758,A17758,WAM,Malurus lamberti,11,1982,115.75,-27.566944,115.75,-27.566944,158714.3598,260.4388123,YAL,Yalgoo
11685,4ba10d51-aa95-4c16-849f-f39deb229bc0,ABTC113313,ABTC113313,ABTC,Malurus lamberti assimilis,10,2005,139.4794,-34.3753,139.4794,-34.3753,99176.70946,80.77060699,MDD,Murray Darling Depression
6039,4c20c8c7-30b6-4e52-a7cd-979da09777a0,B54436,B54436,ANWC,Malurus lamberti,7,2009,136.469,-15.692,136.469,-15.692,0,1.574169993,GUC,Gulf Coastal
4907,4cb2626f-1082-427e-83e6-fe713f0dfea2,B17234,B17234,ANWC,Malurus lamberti,6,1974,136.5167,-15.9,136.5167,-15.9,17531.60004,2.358426094,GUC,Gulf Coastal
4909,4cf21e5d-df7a-4a61-b8de-ff72d5c04567,A15619,A15619,WAM,Malurus lamberti,6,1978,129.583333,-15.95,129.583333,-15.95,89760,190.7406006,VIB,Victoria Bonaparte
7137,4d35ec81-5b13-4c34-a415-ccc4058df349,G31994,G31994,ANWC,Malurus lamberti,7,2010,126.0601,-18.7082,126.0601,-18.7082,280157.4973,239.5233002,OVP,Ord Victoria Plain
3253,4dadb16a-1e05-4b2f-8f3c-f037cf9e1243,B28095,B28095,ANWC,Malurus lamberti,5,1996,142.4522,-23.0297,142.4522,-23.0297,602247.3034,248.2324982,CHC,Channel Country
6058,4e29b920-9bb6-49d9-bd84-6290cf530495,B55126,B55126,ANWC,Malurus lamberti,7,2010,127.9837,-16.4463,127.9837,-16.4463,106703.0281,180.0895996,VIB,Victoria Bonaparte
8789,4e6cc7c9-bf2b-470f-800c-ada43950e7b4,B40322,B40322,ANWC,Malurus lamberti,9,1985,137.1417,-33.1,137.1417,-33.1,26992.42301,318.3536072,GAW,Gawler
11694,4f251600-7091-40b4-876c-0c8e5b68ab76,G32479,G32479,ANWC,Malurus lamberti,10,2012,152.243,-31.8241,152.243,-31.8241,37033.0285,60.38249969,NNC,NSW North Coast
12945,4fca911e-5ffe-416b-8553-511d35744d59,G32346,G32346,ANWC,Malurus lamberti,11,2011,151.2054,-28.6098,151.2054,-28.6098,219157.1313,381.188385,NAN,Nandewar
11739,4ffec48e-528d-4f65-9f3d-5eb49d522939,G40536,G40536,ANWC,Malurus lamberti,10,2015,132.426,-13.437,132.426,-13.437,117810,267.9241028,ARP,Arnhem Plateau
8413,50228b57-ac81-4c6b-8b77-0787dab2445f,G31028,G31028,ANWC,Malurus lamberti,8,2008,125.9081,-28.2997,125.9081,-28.2997,440900.5971,325.2197876,GVD,Great Victoria Desert
10286,5060a964-0ea5-4cad-94c1-13e330d0a4a0,O.40596,O.40596,AM,Malurus lamberti,10,1963,136.666,-20.05,136.666,-20.05,400192.2278,302.0332031,DMR,Davenport Murchison Ranges
185,5077aad8-d40e-444b-aa7a-4c09c19f440b,A8862,A8862,WAM,Malurus lamberti,1,1960,114.666667,-28.716667,114.666667,-28.716667,9820,97.72657776,GES,Geraldton Sandplains
4926,508791e3-f366-424c-acc8-634688c0c324,B17169,B17169,ANWC,Malurus lamberti,6,1974,139.5333,-20.5667,139.5333,-20.5667,320578.8117,316.6661987,MII,Mount Isa Inlier
9731,50da4e56-073f-4d77-b735-647f226d8d06,ABTC73792,ABTC73792,ABTC,Malurus lamberti assimilis,9,1999,134.8106,-26.9828,134.8106,-26.9828,586287.305,187.7335052,FIN,Finke
3279,50f14d9c-d2f7-46a6-b867-1abf8cdd0285,O10675,O10675,QM,Malurus lamberti,5,1966,148.416667,-25.05,148.416667,-25.05,301753.0979,314.2264099,BBS,Brigalow Belt South
8395,51060b57-9e01-4d80-821d-bd4e1373eee0,G24220,G24220,ANWC,Malurus lamberti,8,1996,139.5664,-31.1189,139.5664,-31.1189,232822.9991,24.12895012,BHC,Broken Hill Complex
7129,5124e108-d946-43c1-9e08-8a801c6a4e11,G32053,G32053,ANWC,Malurus lamberti,7,2010,126.1982,-19.189,126.1982,-19.189,329049.5514,239.9998016,GSD,Great Sandy Desert
7510,5164a108-ff2e-4557-8763-179dba2761c4,B48236,B48236,ANWC,Malurus lamberti,8,1996,139.3111,-30.4658,139.3111,-30.4658,275812.4076,190.5733948,FLB,Flinders Lofty Block
4580,519d72b8-363f-4f40-a312-7340b68ba215,G24004,G24004,ANWC,Malurus lamberti,5,1996,142.8686,-24.0222,142.8686,-24.0222,663513.9518,215.2763062,CHC,Channel Country
10296,5208116f-f5bf-4f79-89bf-a67081e088bb,O.46096,O.46096,AM,Malurus lamberti,10,1976,142.016,-29.433,142.016,-29.433,532668.1918,178.4080048,CHC,Channel Country
12953,52271522-f578-4a83-b88b-ddab3a9b30e1,G32365,G32365,ANWC,Malurus lamberti,11,2011,151.5534,-28.2812,151.5534,-28.2812,184492.5343,587.5687256,NAN,Nandewar
8414,5234133c-0c77-47ab-a035-af1ee657ffd8,G31027,G31027,ANWC,Malurus lamberti,8,2008,125.9081,-28.2997,125.9081,-28.2997,440900.5971,325.2197876,GVD,Great Victoria Desert
3287,52651572-201f-4ee0-98b6-66395ba4d44f,A36182,A36182,WAM,Malurus lamberti,5,2005,125.2,-15.1,125.2,-15.1,0,148.9687042,NOK,Northern Kimberley
11680,52bcf035-21ab-4e8d-bfee-5a66fd71ec68,G22999,G22999,ANWC,Malurus lamberti,10,1994,137.1603,-35.0917,137.1603,-35.0917,14730,78.70462036,EYB,Eyre Yorke Block
3298,53d26b3c-b7d8-432b-85b4-f88bfdfaba54,A15643,A15643,WAM,Malurus lamberti,5,1978,130.966667,-17.483333,130.966667,-17.483333,292396.5013,216.2207947,OVP,Ord Victoria Plain
1304,54229889-b36b-47c2-bec4-8abbdf21ede9,A20199,A20199,WAM,Malurus lamberti,3,1986,125.3,-17.166667,125.3,-17.166667,102726.7682,425.6648865,CEK,Central Kimberley
8812,54454424-c86c-4323-827e-a642d6497dda,B48315,B48315,ANWC,Malurus lamberti,9,1996,138.3494,-31.8356,138.3494,-31.8356,99991.51264,269.6065063,FLB,Flinders Lofty Block
11696,54b16730-d6d6-43df-a5f7-0ebbb8c62b45,G32458,G32458,ANWC,Malurus lamberti,10,2012,152.9328,-30.5443,152.9328,-30.5443,4910,181.5856934,NNC,NSW North Coast
10328,562a2ac6-106b-49dc-9fc5-9edaf6a473db,A15052,A15052,WAM,Malurus lamberti,10,1977,124.05,-16.916667,124.05,-16.916667,22618.97434,48.4119606,DAL,Dampierland
4945,56a73051-1822-4978-810b-a7936d0fe1ab,O.65935,O.65935,AM,Malurus lamberti,6,1995,138.166,-18.35,138.166,-18.35,166302.1422,198.2801056,GFU,Gulf Fall and Uplands
3324,5728641c-6bb7-41b8-946f-14ad7c4af398,A10412,A10412,WAM,Malurus lamberti,5,1970,132.2,-28.792222,132.2,-28.792222,313126.7617,252.8446045,GVD,Great Victoria Desert
4570,57670ca4-03ca-4d8e-a27e-b0de723b3d46,G6289,G6289,ANWC,Malurus lamberti,5,2002,134.1861,-28.4108,134.1861,-28.4108,420018.4383,256.7723083,STP,Stony Plains
8824,57745b4a-653d-4785-b9ec-0ca6ba0f1a24,A36977,A36977,WAM,Malurus lamberti,9,2005,118.290278,-22.583333,118.290278,-22.583333,220451.5049,757.0435181,PIL,Pilbara
4949,5785d4ff-e99e-4e66-8706-e62557936f7e,A15615,A15615,WAM,Malurus lamberti,6,1978,129.583333,-15.95,129.583333,-15.95,89760,190.7406006,VIB,Victoria Bonaparte
4950,57cbf60a-73cc-4e50-a93b-6ddea7562119,B12235,B12235,ANWC,Malurus lamberti,6,1970,147.5,-33.6167,147.5,-33.6167,324338.4586,209.8668976,NSS,NSW South Western Slopes
11683,5812fd1a-77a0-42ad-8144-38c58514f871,G22621,G22621,ANWC,Malurus lamberti,10,1994,143.5511,-34.6831,143.5511,-34.6831,374081.3593,65.07148743,MDD,Murray Darling Depression
2027,5972e18d-cde2-478e-b096-a13250db0722,A13008,A13008,WAM,Malurus lamberti,4,1974,119.582778,-20.1,119.582778,-20.1,5610,12.1072197,DAL,Dampierland
7549,598ff38b-6f93-481b-839a-8c7bdd6b5dbc,B13953,B13953,ANWC,Malurus lamberti,8,1971,147.5,-33.6167,147.5,-33.6167,324338.4586,209.8668976,NSS,NSW South Western Slopes
10352,59a20dd1-59f2-4c16-a37c-90eef183cafa,B15245,B15245,ANWC,Malurus lamberti,10,1972,132.95,-13.0833,132.95,-13.0833,102726.7682,23.8055191,ARP,Arnhem Plateau
7553,5a26ae5e-ab5c-4564-8e18-35641ab0bd1b,B48221,B48221,ANWC,Malurus lamberti,8,1996,139.5664,-31.1189,139.5664,-31.1189,232822.9991,24.12895012,BHC,Broken Hill Complex
4958,5a68a9ad-7138-4e7b-93d3-2f1a4e6c2cd7,A8882,A8882,WAM,Malurus lamberti,6,1960,126.632778,-14.3,126.632778,-14.3,11220,13.20454025,NOK,Northern Kimberley
3344,5af5a38c-406d-437b-a4b0-3259e685801d,B33803,B33803,ANWC,Malurus lamberti,5,2002,114.0814,-25.4828,114.0814,-25.4828,7455.212941,9.869441032,CAR,Carnarvon
212,5b283f13-9a2c-4953-b6b5-a236d82ef0ae,B15920,B15920,ANWC,Malurus lamberti,1,1973,132.4667,-13.4667,132.4667,-13.4667,123517.6283,160.5357056,ARP,Arnhem Plateau
9735,5c22a590-d782-4ed5-b5bb-a89a002ee546,ABTC37966,ABTC37966,ABTC,Malurus lamberti assimilis,9,1997,137.0925,-26.5778,137.0925,-26.5778,679679.5664,39.117939,SSD,Simpson Strzelecki Dunefields
4963,5c5724e9-b987-493e-99d1-49d813973b7d,A15627,A15627,WAM,Malurus lamberti,6,1978,128.733333,-15.766667,128.733333,-15.766667,73934.56702,59.76517868,VIB,Victoria Bonaparte
10369,5d18fa55-e35d-4653-9057-9e3e9c3fb70c,B55477,B55477,ANWC,Malurus lamberti,10,2010,149.0518,-28.3577,149.0518,-28.3577,411373.2015,209.853302,BBS,Brigalow Belt South
8411,5d19175a-6b1e-479e-ac92-3b596b2d8679,G30920,G30920,ANWC,Malurus lamberti,8,2008,128.0967,-28.4636,128.0967,-28.4636,370961.9195,332.9543152,GVD,Great Victoria Desert
10370,5d428f22-2df2-43e2-a5db-19bd521ad529,A10565,A10565,WAM,Malurus lamberti,10,1970,115.016944,-30.016944,115.016944,-30.016944,7455.212941,14.90244007,GES,Geraldton Sandplains
4971,5dcf4a7f-3270-466f-9fc2-bc4b78927f4c,A8884,A8884,WAM,Malurus lamberti,6,1960,126.632778,-14.3,126.632778,-14.3,11220,13.20454025,NOK,Northern Kimberley
6111,5df75950-a742-4c10-962e-be4de7c88891,B55281,B55281,ANWC,Malurus lamberti,7,2010,126.1829,-19.2027,126.1829,-19.2027,325254.4742,251.4633942,GSD,Great Sandy Desert
1316,5e2b6bf4-f3b2-4c20-a62b-b877e7295fc2,A20170,A20170,WAM,Malurus lamberti,3,1986,125.85,-16.8,125.85,-16.8,124211.1046,461.5606995,CEK,Central Kimberley
11745,5ec07878-9663-46d6-86ad-58a5e4a3de2e,G40532,G40532,ANWC,Malurus lamberti,10,2015,132.419,-13.431,132.419,-13.431,117810,100.7722015,ARP,Arnhem Plateau
4983,5fd2d6e8-60e3-4986-b5fa-f1a4a5d69779,B19008,B19008,ANWC,Malurus lamberti,6,1976,134.0333,-23.75,134.0333,-23.75,891699.0149,654.3302002,MAC,MacDonnell Ranges
1318,5fdad357-8ba6-458c-b3c9-657c17cd70e4,A20175,A20175,WAM,Malurus lamberti,3,1986,126.566667,-18.133333,126.566667,-18.133333,273493.7531,358.8266907,CEK,Central Kimberley
13122,604e615c-3bf3-411c-b8f0-c84efd5bd1cc,O26601,O26601,QM,Malurus lamberti,12,1985,152.65,-26.65,152.65,-26.65,49100,180.0193939,SEQ,South Eastern Queensland
12121,60f3d84a-c1c5-4727-9d2b-d145e718d0d9,A16849,A16849,WAM,Malurus lamberti,11,1979,116.016667,-29.833333,116.016667,-29.833333,95950.91297,309.9949951,AVW,Avon Wheatbelt
7583,60f4cd08-03f2-4f8e-a99a-0bd97d9ffe39,A14596,A14596,WAM,Malurus lamberti,8,1976,123.283333,-18.816667,123.283333,-18.816667,126295.1187,239.9985046,DAL,Dampierland
6124,61c1ffe4-c125-453f-b3b2-b39bd1c48ff7,B55291,B55291,ANWC,Malurus lamberti,7,2010,126.1069,-19.2103,126.1069,-19.2103,321489.5875,234.4696045,OVP,Ord Victoria Plain
6127,6236a06f-f4f0-4fd2-9b13-bc67d1b77b2a,O11716,O11716,QM,Malurus lamberti,7,1971,140.066667,-22.283333,140.066667,-22.283333,505496.501,208.4459991,MGD,Mitchell Grass Downs
11692,623dc660-4cd8-4f61-aa06-b53b3d0ea06f,G26276,G26276,ANWC,Malurus lamberti,10,1997,142.2208,-32.2111,142.2208,-32.2111,403367.3592,73.0911026,BHC,Broken Hill Complex
11749,62413900-f343-47d4-9c13-6a87b3599e71,G40526,G40526,ANWC,Malurus lamberti,10,2015,132.424,-13.427,132.424,-13.427,117810,252.2875061,ARP,Arnhem Plateau
11695,63617728-a2f9-45c7-9b0a-3978f69c4745,G26258,G26258,ANWC,Malurus lamberti,10,1997,141.2942,-31.1583,141.2942,-31.1583,362140.7418,138.8618011,BHC,Broken Hill Complex
7132,64041cde-e3cd-44ac-a2f6-7b881496c106,G32173,G32173,ANWC,Malurus lamberti,7,2010,127.7076,-18.9261,127.7076,-18.9261,382269.1367,359.7543945,OVP,Ord Victoria Plain
7598,640dc61c-d44d-45ff-8dbc-f8a843dae710,O.46337,O.46337,AM,Malurus lamberti,8,1977,138.1,-32.65,138.1,-32.65,22365.63882,323.177002,FLB,Flinders Lofty Block
2059,65148a53-14f8-4c2f-bbad-ac85a22c822c,A17463,A17463,WAM,Malurus lamberti,4,1982,117.283333,-22.3,117.283333,-22.3,179520,559.9611206,PIL,Pilbara
12948,65636957-e310-4984-bf79-390a611b52bd,G32351,G32351,ANWC,Malurus lamberti,11,2011,150.9771,-28.5716,150.9771,-28.5716,239091.4405,319.6314087,BBS,Brigalow Belt South
6140,6569487c-83d4-493d-9930-250bf93ed5ea,B52435,B52435,ANWC,Malurus lamberti,7,2009,134.192,-14.761,134.192,-14.761,132570,56.27629089,GFU,Gulf Fall and Uplands
1325,659bb314-785c-4989-8b28-aa3f16cc9cd3,A20177,A20177,WAM,Malurus lamberti,3,1986,126.566667,-18.133333,126.566667,-18.133333,273493.7531,358.8266907,CEK,Central Kimberley
3402,65da15f6-8665-4a91-ad57-0688f2ad11f9,B33174,B33174,ANWC,Malurus lamberti,5,2002,117.4347,-22.9314,117.4347,-22.9314,248057.8322,473.6636047,PIL,Pilbara
11719,664ef2b0-ce6a-4bb2-9a04-b194efe21278,G2247,G2247,ANWC,Malurus lamberti,10,2001,139.5917,-17.7333,139.5917,-17.7333,24494.61165,2.078464031,GUP,Gulf Plains
12142,664ff947-9842-44ac-8b21-8c4aae787460,B38626,B38626,ANWC,Malurus lamberti,11,1984,150.8,-34.2,150.8,-34.2,18516.51425,233.878006,SYB,Sydney Basin
1327,665591bd-792a-4858-ae45-db80d80da9ff,A20162,A20162,WAM,Malurus lamberti,3,1986,125.95,-16.666944,125.95,-16.666944,129617.2411,398.0091858,CEK,Central Kimberley
2065,66a6e6bc-ca78-40ae-9668-cba6a5b54328,B37306,B37306,ANWC,Malurus lamberti,4,1979,125.9167,-16.5833,125.9167,-16.5833,123898.3914,478.3145142,NOK,Northern Kimberley
6145,66c77190-1886-4c2c-aff3-9d14e5662ba0,B51867,B51867,ANWC,Malurus lamberti,7,2007,130.1203,-29.7253,130.1203,-29.7253,206737.9929,158.6623993,GVD,Great Victoria Desert
8404,6751d75e-8f2b-4199-b094-5045e6c34fbf,G30790,G30790,ANWC,Malurus lamberti,8,2008,128.5172,-29.57,128.5172,-29.57,240681.5207,210.6266937,NUL,Nullarbor
7152,675ffae6-5a68-488f-826a-2f9a7c673279,G31552,G31552,ANWC,Malurus lamberti,7,2009,133.609,-15.856,133.609,-15.856,223460.0369,180.767395,STU,Sturt Plateau
12937,677bc7ee-d13e-48ea-b38c-5c43f04d0ba6,G29794,G29794,ANWC,Malurus lamberti,11,2009,149.8464,-29.4706,149.8464,-29.4706,323720.9493,240.4832001,BBS,Brigalow Belt South
1330,6780c75d-f6da-48bf-911c-26c565d08931,A20157,A20157,WAM,Malurus lamberti,3,1986,126.182778,-16.3,126.182778,-16.3,148132.114,534.6223755,NOK,Northern Kimberley
3423,68732a7b-df1a-4c64-9308-de4932fc125f,B18734,B18734,ANWC,Malurus lamberti,5,1976,135.85,-16.6667,135.85,-16.6667,125635.3716,88.0113678,GFU,Gulf Fall and Uplands
7128,6873d780-91a7-45ab-94a8-7bb81debbc60,G32054,G32054,ANWC,Malurus lamberti,7,2010,126.1829,-19.2027,126.1829,-19.2027,325254.4742,251.4633942,GSD,Great Sandy Desert
10448,68a8f83f-e9b6-4ca8-b9a9-4f8bbb04afd8,B41656,B41656,ANWC,Malurus lamberti,10,1988,140.8333,-17.5,140.8333,-17.5,7455.212941,3.06834507,GUP,Gulf Plains
3428,690ec768-dc1d-4d72-8234-388056784b51,A15630,A15630,WAM,Malurus lamberti,5,1978,130.683333,-16.033333,130.683333,-16.033333,144096.3473,114.8569031,OVP,Ord Victoria Plain
8901,692dc3f7-06fe-4487-9a0b-50846cad7c8a,B11721,B11721,ANWC,Malurus lamberti,9,1969,114,-25.0167,114,-25.0167,25864.61869,28.9538002,CAR,Carnarvon
7158,6933fe01-3b04-47fa-aa04-abc94cda14c8,G31475,G31475,ANWC,Malurus lamberti,7,2009,134.192,-14.761,134.192,-14.761,132570,56.27629089,GFU,Gulf Fall and Uplands
10454,69937786-408b-40b8-9c83-623e97cf0cae,O.40597,O.40597,AM,Malurus lamberti,10,1963,136.666,-20.05,136.666,-20.05,400192.2278,302.0332031,DMR,Davenport Murchison Ranges
12951,69b2271b-85d4-468f-af4c-9c5dd5e28017,G32363,G32363,ANWC,Malurus lamberti,11,2011,151.3593,-28.5358,151.3593,-28.5358,209363.1715,390.9237061,NAN,Nandewar
12932,6a4007fc-edac-487c-8c18-c8ed0ba34fbb,G23322,G23322,ANWC,Malurus lamberti,11,1994,135.4358,-32.4317,135.4358,-32.4317,108657.3058,217.8768005,GAW,Gawler
2078,6ac09d59-4377-48e0-bb26-ada5a4cbb864,B37282,B37282,ANWC,Malurus lamberti,4,1979,125.9167,-16.5833,125.9167,-16.5833,123898.3914,478.3145142,NOK,Northern Kimberley
6164,6ac1a924-c39e-4b3c-8679-279611a7a567,B55160,B55160,ANWC,Malurus lamberti,7,2010,127.9829,-16.429,127.9829,-16.429,106703.0281,174.842804,VIB,Victoria Bonaparte
8416,6bc39fa2-714a-4627-8370-8d9953243698,G31059,G31059,ANWC,Malurus lamberti,8,2008,126.0433,-28.0342,126.0433,-28.0342,467283.8701,395.9198914,GVD,Great Victoria Desert
10465,6bc82c9f-1429-483a-a448-e74d2d437fb7,B49330,B49330,ANWC,Malurus lamberti,10,1997,147.555,-29.4217,147.555,-29.4217,533366.7131,129.9203033,DRP,Darling Riverine Plains
13147,6c51d942-a3d7-405f-83ad-621941560e7e,B32011,B32011,ANWC,Malurus lamberti,12,1998,144.7197,-30.0419,144.7197,-30.0419,706738.9951,97.6648407,MUL,Mulga Lands
12170,6d658f77-faa4-4ddf-9058-9666c261d8e9,B16797,B16797,ANWC,Malurus lamberti,11,1973,137.5167,-33.0333,137.5167,-33.0333,4910,16.72199059,GAW,Gawler
11699,6f76eba8-c457-4943-9ba6-e9f10c40d931,G26114,G26114,ANWC,Malurus lamberti,10,1997,147.555,-29.4217,147.555,-29.4217,533366.7131,129.9203033,DRP,Darling Riverine Plains
1344,6f79dcb0-7f27-4b10-baa9-8f81037f6687,A20180,A20180,WAM,Malurus lamberti,3,1986,124.983333,-17.333333,124.983333,-17.333333,105189.6002,104.3380966,CEK,Central Kimberley
6190,6fb1869a-3daf-4578-88fe-f0f939e0e76c,B20354,B20354,ANWC,Malurus lamberti,7,1994,151.9167,-32.55,151.9167,-32.55,22365.63882,77.60179901,NNC,NSW North Coast
2099,70091d2d-0f5e-450f-a473-4ba50d648c63,B37196,B37196,ANWC,Malurus lamberti,4,1979,132.45,-13.4667,132.45,-13.4667,123517.6283,76.17156982,ARP,Arnhem Plateau
7159,70eb49ce-401e-44d9-94de-218f799babd1,G29478,G29478,ANWC,Malurus lamberti,7,2009,134.192,-14.761,134.192,-14.761,132570,56.27629089,GFU,Gulf Fall and Uplands
5052,71cff544-d049-4d4b-945c-eff24cbb7113,A14942,A14942,WAM,Malurus lamberti,6,1976,145.733333,-19.933333,145.733333,-19.933333,121948.9881,339.2549133,DEU,Desert Uplands
6197,733eddbf-35c4-4046-a8fc-eaddd4e9db59,B55400,B55400,ANWC,Malurus lamberti,7,2010,127.7076,-18.9261,127.7076,-18.9261,382269.1367,359.7543945,OVP,Ord Victoria Plain
12956,735b0a8d-e964-420b-94e1-d6e0ade11cf9,G29786,G29786,ANWC,Malurus lamberti,11,2009,143.1869,-24.1106,143.1869,-24.1106,653223.6684,178.7265015,MGD,Mitchell Grass Downs
11750,7368d456-cef9-47ee-a062-94536d6ae454,G40540,G40540,ANWC,Malurus lamberti,10,2015,132.424,-13.427,132.424,-13.427,117810,252.2875061,ARP,Arnhem Plateau
12194,738a6d8f-0de8-472f-9d5e-55f1a309174b,A15049,A15049,WAM,Malurus lamberti,11,1977,126.783333,-17.666667,126.783333,-17.666667,255866.4562,335.0708923,CEK,Central Kimberley
7144,738b77ec-9de1-43b1-b419-45360f6358f7,G32185,G32185,ANWC,Malurus lamberti,7,2010,128.6945,-18.1345,128.6945,-18.1345,300873.5297,337.7535095,OVP,Ord Victoria Plain
10513,73dae57a-97fa-41cd-89f3-8a4cb2c26450,B43211,B43211,ANWC,Malurus lamberti,10,1990,152.9833,-30.2,152.9833,-30.2,14910.42588,178.7416992,NNC,NSW North Coast
3489,73f2160c-3ad6-4b5b-9ba4-5226390e90a9,O10674,O10674,QM,Malurus lamberti,5,1966,148.416667,-25.05,148.416667,-25.05,301753.0979,314.2264099,BBS,Brigalow Belt South
3492,7418d95d-58b4-4cbc-a8ba-6f8799f667c1,A15648,A15648,WAM,Malurus lamberti,5,1978,128.033333,-18.233333,128.033333,-18.233333,308589.0643,275.4350891,OVP,Ord Victoria Plain
11734,7447af98-d67e-4d78-a821-6630cc9d762d,G40529,G40529,ANWC,Malurus lamberti,10,2015,132.427,-13.514,132.427,-13.514,129030,225.8518982,ARP,Arnhem Plateau
11700,749239e2-597b-4b57-b881-ea9382f53e79,ABTC24641,ABTC24641,ABTC,Malurus lamberti,10,1984,134.25,-29.1667,134.25,-29.1667,332561.7717,159.045105,GVD,Great Victoria Desert
3494,74e19214-7438-4134-bac0-739a2b3c1383,O.65955,O.65955,AM,Malurus lamberti,5,1995,138.05,-18.583,138.05,-18.583,192155.2836,229.1999054,GFU,Gulf Fall and Uplands
10525,7513b158-1cba-451c-9df0-446604aa5924,B49357,B49357,ANWC,Malurus lamberti,10,1997,145.7606,-29.9222,145.7606,-29.9222,656184.4973,102.9981003,MUL,Mulga Lands
4579,75e82b7f-8a56-49b3-99f0-136682c70dc0,G24029,G24029,ANWC,Malurus lamberti,5,1996,143,-24.2167,143,-24.2167,674296.9686,199.9998932,CHC,Channel Country
7121,75f18074-fa17-440d-bce7-5fe485dc57f5,ABTC119786,ABTC119786,ABTC,Malurus lamberti,7,2007,130.1003,-29.8801,130.1003,-29.8801,190330.9565,148.9822998,GVD,Great Victoria Desert
12928,762ef00f-433f-4fdc-994c-f39025736468,ABTC113232,ABTC113232,ABTC,Malurus lamberti assimilis,11,2004,139.4794,-34.3753,139.4794,-34.3753,99176.70946,80.77060699,MDD,Murray Darling Depression
12200,76345c24-9095-4d33-a5c5-21bd1010880b,O.53047,O.53047,AM,Malurus lamberti,11,1979,128.733,-15.766,128.733,-15.766,73934.56702,59.76517868,VIB,Victoria Bonaparte
9747,769e0990-3f6f-4709-9aff-63b1b1e53587,G27655,G27655,ANWC,Malurus lamberti,9,2004,123.6261,-17.7086,123.6261,-17.7086,24494.61165,1.940161943,DAL,Dampierland
11717,76f73dba-eda8-4da5-9d14-bedb5afb9ce2,G12792,G12792,ANWC,Malurus lamberti,10,1988,141.1333,-17.8667,141.1333,-17.8667,56528.85369,7.567935944,GUP,Gulf Plains
12952,77119f77-a22a-47b4-8a66-5bfb25f4ddde,G32354,G32354,ANWC,Malurus lamberti,11,2011,150.6139,-28.3467,150.6139,-28.3467,265531.7068,245.3623962,BBS,Brigalow Belt South
12938,778df865-8771-4539-a82e-d429a3c98a72,G29792,G29792,ANWC,Malurus lamberti,11,2009,149.8464,-29.4706,149.8464,-29.4706,323720.9493,240.4832001,BBS,Brigalow Belt South
4574,77b4aab7-aa6a-4ea9-8af1-ea64e2b7af27,G6888,G6888,ANWC,Malurus lamberti,5,2002,113.8328,-26.6267,113.8328,-26.6267,4910,19.60143089,YAL,Yalgoo
8410,77fb42a1-e6e5-4717-9758-a3fee31eda35,G30890,G30890,ANWC,Malurus lamberti,8,2008,127.445,-28.4661,127.445,-28.4661,386780.8931,308.6156921,GVD,Great Victoria Desert
284,789c05f5-e5ed-4a8e-bb9c-b5ca3376dbcc,O.55084,O.55084,AM,Malurus lamberti,1,1980,151.133,-33.65,151.133,-33.65,9820,163.7915955,SYB,Sydney Basin
5077,78f2ca84-bc66-400d-aa4d-fc128adceb11,A14941,A14941,WAM,Malurus lamberti,6,1976,145.733333,-19.933333,145.733333,-19.933333,121948.9881,339.2549133,DEU,Desert Uplands
9716,79180c02-ab06-419f-8d86-7035bc4fd743,ABTC2928,ABTC2928,ABTC,Malurus lamberti assimilis,9,1991,134.8833,-33.6,134.8833,-33.6,4910,39.07545853,EYB,Eyre Yorke Block
5078,791d0f9e-86fe-45fc-9f73-3ceee198bc13,O.42357,O.42357,AM,Malurus lamberti,6,1967,137.983,-27.9,137.983,-27.9,528800.902,-2.19E-05,SSD,Simpson Strzelecki Dunefields
10550,792ccf2a-e51f-4e6e-9b4a-6474217a7921,A15045,A15045,WAM,Malurus lamberti,10,1977,123.666667,-16.583333,123.666667,-16.583333,4910,50.64247131,NOK,Northern Kimberley
12211,7943e537-8e42-42b0-97a0-0505567c1ed5,O30537,O30537,QM,Malurus lamberti,11,1990,152.833333,-27.2,152.833333,-27.2,24550,84.29170227,SEQ,South Eastern Queensland
6232,79aef888-ea8b-4d42-89a3-9cbe047deaef,B55370,B55370,ANWC,Malurus lamberti,7,2010,127.6862,-18.5514,127.6862,-18.5514,343475.728,412.9125061,OVP,Ord Victoria Plain
2129,7a0c34e2-6b08-4ad9-ba9f-e3940460a39c,A14552,A14552,WAM,Malurus lamberti,4,1976,118.083333,-22.55,118.083333,-22.55,211806.7763,751.9312134,PIL,Pilbara
8397,7af3f0c5-21c5-4348-87ab-19cad4fc0c46,G24242,G24242,ANWC,Malurus lamberti,8,1996,139.3806,-30.3228,139.3806,-30.3228,295268.8715,277.7473145,FLB,Flinders Lofty Block
8973,7b013707-553b-4fab-b13e-10c6646f9372,B40065,B40065,ANWC,Malurus lamberti,9,1985,142.1667,-28.8,142.1667,-28.8,591279.2202,82.92456055,CHC,Channel Country
12218,7b14478c-d794-44a6-ac31-2bf604585a48,B19484,B19484,ANWC,Malurus lamberti,11,1976,139.5,-26.6833,139.5,-26.6833,685123.7384,13.10801983,CHC,Channel Country
7147,7b43ab6b-383d-4aa0-b98c-279c2b70f51b,G31899,G31899,ANWC,Malurus lamberti,7,2010,127.9837,-16.4463,127.9837,-16.4463,106703.0281,180.0895996,VIB,Victoria Bonaparte
5087,7c0693c1-45fb-479c-8499-8931f5e1cae7,O.42358,O.42358,AM,Malurus lamberti,6,1967,137.983,-27.9,137.983,-27.9,528800.902,-2.19E-05,SSD,Simpson Strzelecki Dunefields
12231,7d2e35ab-e7f1-4219-8f1b-1583d77ad4d0,A15048,A15048,WAM,Malurus lamberti,11,1977,127.65,-17.716667,127.65,-17.716667,254778.9226,495.966095,CEK,Central Kimberley
1361,7d3f603a-3ca4-40bc-8515-b8aff12d52b3,A20196,A20196,WAM,Malurus lamberti,3,1986,125.85,-16.8,125.85,-16.8,124211.1046,461.5606995,CEK,Central Kimberley
11726,7d438681-d0f2-4984-85db-e5b87c32aac4,G40548,G40548,ANWC,Malurus lamberti,10,2015,132.457,-13.532,132.457,-13.532,129123.3867,203.1772003,ARP,Arnhem Plateau
3547,7d85596b-7c28-488d-848e-872b6b3ebf79,A15636,A15636,WAM,Malurus lamberti,5,1978,131.032778,-16.55,131.032778,-16.55,211282.8694,76.46478271,OVP,Ord Victoria Plain
299,7e1700b2-5e53-4e23-899c-ad5745990553,B46852,B46852,ANWC,Malurus lamberti,1,1995,153.1894,-28.4625,153.1894,-28.4625,48107.09407,138.6867981,SEQ,South Eastern Queensland
11730,7ee3a7d6-2d4f-4222-956c-cdd69e3ff6ff,G40545,G40545,ANWC,Malurus lamberti,10,2015,132.433,-13.517,132.433,-13.517,129030,210.2633057,ARP,Arnhem Plateau
3554,7f55c968-f297-4437-a219-d3ccc045dccf,A15646,A15646,WAM,Malurus lamberti,5,1978,130.966667,-17.483333,130.966667,-17.483333,292396.5013,216.2207947,OVP,Ord Victoria Plain
4584,7f5de6e2-c8d3-4fff-8515-40f74ce70991,G6725,G6725,ANWC,Malurus lamberti,5,2002,117.6447,-22.0247,117.6447,-22.0247,144399.9979,418.3505859,PIL,Pilbara
3557,7fe2517c-1035-43b1-a605-61adf291595a,A15659,A15659,WAM,Malurus lamberti,5,1978,127.883333,-18.233333,127.883333,-18.233333,308706.2275,384.0317993,OVP,Ord Victoria Plain
2151,802eef8a-0d6d-4662-ac48-dfd414a91c2f,O.55085,O.55085,AM,Malurus lamberti,4,1979,151.066,-34.083,151.066,-34.083,5610,96.78922272,SYB,Sydney Basin
2152,8043d02d-bfac-4d21-b849-56cb989ec85f,B47854,B47854,ANWC,Malurus lamberti,4,1996,142.8411,-29.735,142.8411,-29.735,575349.708,91.57631683,CHC,Channel Country
2153,8044b404-2832-456d-90d2-3ca15f502858,A14551,A14551,WAM,Malurus lamberti,4,1976,118.083333,-22.55,118.083333,-22.55,211806.7763,751.9312134,PIL,Pilbara
8405,808aaacb-d4d1-413e-ad59-86eea5935ec5,ABTC119851,ABTC119851,ABTC,Malurus lamberti,8,2007,130.2,-29.2336,130.2,-29.2336,261032.339,237.5601044,GVD,Great Victoria Desert
6255,809f04e9-55b6-4adb-8d35-eb48d8a1762a,B55280,B55280,ANWC,Malurus lamberti,7,2010,126.1982,-19.189,126.1982,-19.189,329049.5514,239.9998016,GSD,Great Sandy Desert
3567,80c85e01-9a5b-4272-9bee-6b119bb73f8a,B36132,B36132,ANWC,Malurus lamberti,5,1978,120.6667,-26.55,120.6667,-26.55,634606.1968,535.3745117,MUR,Murchison
7689,81192cd8-2c9b-4050-a974-a42eb932ef36,B54096,B54096,ANWC,Malurus lamberti,8,2008,128.5947,-29.5733,128.5947,-29.5733,239728.0553,210.5865021,NUL,Nullarbor
7160,8134d96f-88e5-4e1a-a7c8-1752fb110fa7,G31513,G31513,ANWC,Malurus lamberti,7,2009,133.741,-14.172,133.741,-14.172,191864.83,125.0743027,GFU,Gulf Fall and Uplands
5103,818e25f0-8bd8-45f6-9526-36c196988746,O.39902,O.39902,AM,Malurus lamberti,6,1961,130.283,-26.133,130.283,-26.133,601191.7664,762.2938843,CER,Central Ranges
7123,82167d4d-f629-463e-bdd1-f9b5b186311c,ABTC2286,ABTC2286,ABTC,Malurus lamberti,7,1984,138.6333,-28.7333,138.6333,-28.7333,437522.6732,20.51343918,STP,Stony Plains
6260,823d9d65-8311-4c2a-9cdf-ed70a2db25d1,A18071,A18071,WAM,Malurus lamberti,7,1983,137.366667,-35.683333,137.366667,-35.683333,7455.212941,93.13352203,KAN,Kanmantoo
6261,82a50e31-cbea-4160-a0f9-2f7ab9aaade2,B54458,B54458,ANWC,Malurus lamberti,7,2009,136.544,-15.913,136.544,-15.913,17531.60004,1.403391004,GUC,Gulf Coastal
10625,8328809f-81b1-40b9-98a2-557b11d64748,O.55178,O.55178,AM,Malurus lamberti,10,1979,141.05,-33.966,141.05,-33.966,221684.6932,24.52874947,MDD,Murray Darling Depression
7138,83392756-249d-4011-83ba-b979b45a1801,G31993,G31993,ANWC,Malurus lamberti,7,2010,126.0601,-18.7082,126.0601,-18.7082,280157.4973,239.5233002,OVP,Ord Victoria Plain
9010,83aa8871-1bf3-49df-81fb-666c4d9f22f0,B40123,B40123,ANWC,Malurus lamberti,9,1985,139.9,-27.5333,139.9,-27.5333,601425.677,43.84899902,CHC,Channel Country
9013,843cac3d-4d3b-4722-a25a-dfa91571c969,B15740,B15740,ANWC,Malurus lamberti,9,1971,151.5167,-26.7167,151.5167,-26.7167,157220.1212,600.8483276,BBS,Brigalow Belt South
13185,84671bd4-bd9a-470d-8571-5f3e6ff9a48f,B47476,B47476,ANWC,Malurus lamberti,12,1994,152.35,-28.9333,152.35,-28.9333,104681.5858,559.0828247,NNC,NSW North Coast
11720,8510ce1b-c557-4edb-8aed-8cacab597285,G2249,G2249,ANWC,Malurus lamberti,10,2001,139.5917,-17.7333,139.5917,-17.7333,24494.61165,2.078464031,GUP,Gulf Plains
3598,85404858-eb0c-421d-9cf8-ae4b68b99b0d,A15637,A15637,WAM,Malurus lamberti,5,1978,131.032778,-16.55,131.032778,-16.55,211282.8694,76.46478271,OVP,Ord Victoria Plain
3600,85618247-b7eb-496a-ac64-e3b6e97dc8d9,A15631,A15631,WAM,Malurus lamberti,5,1978,130.683333,-16.033333,130.683333,-16.033333,144096.3473,114.8569031,OVP,Ord Victoria Plain
4578,85782a2b-08aa-4cd0-a35a-d35e7d1c2873,G6529,G6529,ANWC,Malurus lamberti,5,2002,119.6961,-24.3267,119.6961,-24.3267,453018.7961,619.2324219,GAS,Gascoyne
9024,86b27e39-5bfd-4c04-9e7d-06e6031f66b9,O.55467,O.55467,AM,Malurus lamberti,9,1981,132.9,-12.483,132.9,-12.483,49092.00037,38.80424118,PCK,Pine Creek
3609,8728fe42-6632-4512-9752-b1d88685a9d7,B18766,B18766,ANWC,Malurus lamberti,5,1976,136.6667,-15.7333,136.6667,-15.7333,4910,44.90552902,GUC,Gulf Coastal
10656,87372770-8ba6-42dd-b979-6cda3220811e,B18150,B18150,ANWC,Malurus lamberti,10,1975,136.5167,-15.9,136.5167,-15.9,17531.60004,2.358426094,GUC,Gulf Coastal
10657,873a20ee-81ff-434a-b03c-b7b516cba06c,B00899,B00899,ANWC,Malurus lamberti,10,1966,150.8167,-26.0833,150.8167,-26.0833,204907.7963,389.968811,BBS,Brigalow Belt South
3611,8781b7d1-d04b-4c74-a9d0-caa72a80fe57,A15614,A15614,WAM,Malurus lamberti,5,1978,130.95,-15.55,130.95,-15.55,141614.9611,38.63225174,VIB,Victoria Bonaparte
2188,87e71e76-c7c1-43c2-8e99-7183634b2070,A20707,A20707,WAM,Malurus lamberti,4,1986,128.4,-17.532778,128.4,-17.532778,234216.4729,239.9544983,OVP,Ord Victoria Plain
5123,884c6ebc-dc21-463f-8f7e-edb4d933e5aa,B05263,B05263,ANWC,Malurus lamberti,6,1979,114.2333,-27.65,114.2333,-27.65,9820,8.86669445,GES,Geraldton Sandplains
9037,88c6df0c-34cc-47c2-824c-5d2875747d68,A37115,A37115,WAM,Malurus lamberti,9,2005,118.65,-23.616667,118.65,-23.616667,342924.5631,529.4771118,GAS,Gascoyne
3629,8a31ca8f-c0ea-4337-be07-c55fa11859f0,A15653,A15653,WAM,Malurus lamberti,5,1978,128.033333,-18.233333,128.033333,-18.233333,308589.0643,275.4350891,OVP,Ord Victoria Plain
6298,8a436eb7-435d-40f4-86ee-9cc1d556ff2a,B54778,B54778,ANWC,Malurus lamberti,7,2009,133.609,-15.856,133.609,-15.856,223460.0369,180.767395,STU,Sturt Plateau
3630,8a5ba74e-78eb-478d-baa9-2434f3590cd0,B32811,B32811,ANWC,Malurus lamberti,5,2002,133.1292,-26.4672,133.1292,-26.4672,591213.2411,436.1281128,FIN,Finke
10673,8af978a4-9bba-446a-99cd-bf2b7a48677b,A15053,A15053,WAM,Malurus lamberti,10,1977,124.05,-16.916667,124.05,-16.916667,22618.97434,48.4119606,DAL,Dampierland
12929,8b7a22c8-565a-4092-83e0-2f4aff37a003,ABTC113233,ABTC113233,ABTC,Malurus lamberti assimilis,11,2004,139.4794,-34.3753,139.4794,-34.3753,99176.70946,80.77060699,MDD,Murray Darling Depression
6304,8ba0ab0c-f375-4d60-a55a-aecbb1920468,B46335,B46335,ANWC,Malurus lamberti,7,1994,151.8,-32.5833,151.8,-32.5833,26842.62469,22.50778961,NNC,NSW North Coast
3639,8bbfabf6-d850-42dd-bb82-3f1f7d8c40d0,A15658,A15658,WAM,Malurus lamberti,5,1978,127.966667,-18.233333,127.966667,-18.233333,308550,327.0255127,OVP,Ord Victoria Plain
4581,8bfdfddf-05fa-4186-ae8f-0bfb9453a773,G6700,G6700,ANWC,Malurus lamberti,5,2002,117.3889,-22.9406,117.3889,-22.9406,247620.1026,389.6250916,PIL,Pilbara
3642,8c05239e-1b78-429c-a7ec-040a623bee6b,A15655,A15655,WAM,Malurus lamberti,5,1978,128.033333,-18.233333,128.033333,-18.233333,308589.0643,275.4350891,OVP,Ord Victoria Plain
12287,8c2d06a2-1705-4e46-b0e7-d13a8b8e9925,A15047,A15047,WAM,Malurus lamberti,11,1977,127.65,-17.716667,127.65,-17.716667,254778.9226,495.966095,CEK,Central Kimberley
9050,8c4d1a55-e7e1-4336-9d0e-0265d0ee77b7,O.62162,O.62162,AM,Malurus lamberti,9,1990,136.35,-15.666,136.35,-15.666,4910,6.964026928,GUC,Gulf Coastal
12290,8ca79092-7f69-48f2-a116-7544b83b8fa5,B46769,B46769,ANWC,Malurus lamberti,11,1994,135.4358,-32.4317,135.4358,-32.4317,108657.3058,217.8768005,GAW,Gawler
12957,8cb52838-ff5e-4272-94be-198bba933d00,G29785,G29785,ANWC,Malurus lamberti,11,2009,143.1869,-24.1106,143.1869,-24.1106,653223.6684,178.7265015,MGD,Mitchell Grass Downs
11707,8d2b8ca8-c7e6-4be4-ab32-eb2798083315,G32252,G32252,ANWC,Malurus lamberti,10,2010,149.2043,-28.3982,149.2043,-28.3982,397617.8619,216.9626007,BBS,Brigalow Belt South
9738,8d66897e-190d-4975-b126-fea976ee0612,ABTC37891,ABTC37891,ABTC,Malurus lamberti assimilis,9,1997,136.5203,-26.3206,136.5203,-26.3206,704131.0756,62.63311005,SSD,Simpson Strzelecki Dunefields
10689,8d711135-1639-4eb9-ae77-237e2519ab0d,B41644,B41644,ANWC,Malurus lamberti,10,1988,141.1333,-17.8667,141.1333,-17.8667,56528.85369,7.567935944,GUP,Gulf Plains
11703,8da0b6ee-bce6-4288-8f15-506be4c2d8f8,G32248,G32248,ANWC,Malurus lamberti,10,2010,151.2253,-28.6178,151.2253,-28.6178,214880.2562,374.7987976,NAN,Nandewar
7743,8db61ef1-eac1-497c-bd44-c1d622188cb6,B54146,B54146,ANWC,Malurus lamberti,8,2008,128.1242,-28.4664,128.1242,-28.4664,370961.9195,349.9440918,GVD,Great Victoria Desert
335,8ded8582-785b-49e2-b606-d3455d866720,A8854,A8854,WAM,Malurus lamberti,1,1960,115.166667,-29.95,115.166667,-29.95,14730,57.71194839,GES,Geraldton Sandplains
3656,8e73faba-63d0-4cf9-993a-f9294e4c0dd1,B33369,B33369,ANWC,Malurus lamberti,5,2002,113.8328,-26.6267,113.8328,-26.6267,4910,19.60143089,YAL,Yalgoo
12955,8ec48e20-b959-4d9b-a1bc-7738878fca9c,G32270,G32270,ANWC,Malurus lamberti,11,2010,150.9848,-24.8005,150.9848,-24.8005,98184.00073,506.435791,BBS,Brigalow Belt South
12960,8f09c41f-83ed-4bfc-8ae5-025005dcac98,G32265,G32265,ANWC,Malurus lamberti,11,2010,148.1329,-23.8655,148.1329,-23.8655,225641.663,237.5626984,BBN,Brigalow Belt North
6315,8f613854-cf48-44eb-8c5f-98c99746f0cd,B55292,B55292,ANWC,Malurus lamberti,7,2010,126.1069,-19.2103,126.1069,-19.2103,321489.5875,234.4696045,OVP,Ord Victoria Plain
9073,9057561e-42d3-4ebf-861f-92e2b544b8be,O.62160,O.62160,AM,Malurus lamberti,9,1990,125.716,-14.666,125.716,-14.666,7455.212941,110.405899,NOK,Northern Kimberley
5163,90c000a1-09e3-47d2-9fa8-4c0894535de6,A15617,A15617,WAM,Malurus lamberti,6,1978,129.583333,-15.95,129.583333,-15.95,89760,190.7406006,VIB,Victoria Bonaparte
10716,90fe1b82-789c-4dc5-bceb-cb813c723b12,B55501,B55501,ANWC,Malurus lamberti,10,2010,146.9611,-23.6633,146.9611,-23.6633,306785.359,364.223114,BBN,Brigalow Belt North
7754,91183e7e-43d2-4ed7-bdb7-ccafefaf3059,A14080,A14080,WAM,Malurus lamberti,8,1975,127.3,-15.1,127.3,-15.1,83470,305.1679077,NOK,Northern Kimberley
7756,919c5fa9-a002-4df7-ac94-fe9c7ee5516a,A14150,A14150,WAM,Malurus lamberti,8,1975,123.716667,-16.633333,123.716667,-16.633333,11220,74.33119965,NOK,Northern Kimberley
11711,9212d93c-9acd-47b6-b717-57545c546c5c,G32264,G32264,ANWC,Malurus lamberti,10,2010,146.9611,-23.6633,146.9611,-23.6633,306785.359,364.223114,BBN,Brigalow Belt North
12954,9231459a-cdd6-4395-8010-cd75ecc27d97,G32364,G32364,ANWC,Malurus lamberti,11,2011,151.6186,-28.1914,151.6186,-28.1914,173220.8974,511.8118896,NAN,Nandewar
1394,925db44f-2105-448b-9cb7-640b79dab472,A20182,A20182,WAM,Malurus lamberti,3,1986,124.983333,-17.333333,124.983333,-17.333333,105189.6002,104.3380966,CEK,Central Kimberley
12931,9264f7f9-0cde-4ca6-959d-365ef1302e64,G26434,G26434,ANWC,Malurus lamberti,11,1998,147.085,-34.0167,147.085,-34.0167,343792.689,282.0733032,NSS,NSW South Western Slopes
11721,9296abf1-dbba-4f33-9d05-4e95a952018f,G2248,G2248,ANWC,Malurus lamberti,10,2001,139.5917,-17.7333,139.5917,-17.7333,24494.61165,2.078464031,GUP,Gulf Plains
9748,92f1078f-ff8d-42cf-8e69-0b4973dbdb7c,G27636,G27636,ANWC,Malurus lamberti,9,2004,123.6261,-17.7086,123.6261,-17.7086,24494.61165,1.940161943,DAL,Dampierland
3681,93246b1d-855d-4344-a381-fca93308427a,A15612,A15612,WAM,Malurus lamberti,5,1978,130.95,-15.55,130.95,-15.55,141614.9611,38.63225174,VIB,Victoria Bonaparte
3682,932b283b-a691-42be-978d-99d21bd1b212,A15632,A15632,WAM,Malurus lamberti,5,1978,130.683333,-16.033333,130.683333,-16.033333,144096.3473,114.8569031,OVP,Ord Victoria Plain
6337,9356aa0a-ff34-4a44-8747-260550bf3fa2,B46336,B46336,ANWC,Malurus lamberti,7,1994,151.8,-32.5833,151.8,-32.5833,26842.62469,22.50778961,NNC,NSW North Coast
10731,93bc0fd4-a829-434a-931d-4aff1403fcda,B19662,B19662,ANWC,Malurus lamberti,10,1977,120.25,-26.6333,120.25,-26.6333,594771.8004,499.817688,MUR,Murchison
10737,942b28d2-963c-47c5-a849-4e5804d1f4a3,B29378,B29378,ANWC,Malurus lamberti,10,2001,139.8,-17.625,139.8,-17.625,5610,0.9631688,GUP,Gulf Plains
7118,94e7587a-447b-4b8d-99ae-41183ab28f54,G22468,G22468,ANWC,Malurus lamberti,7,1994,151.8,-32.5833,151.8,-32.5833,26842.62469,22.50778961,NNC,NSW North Coast
3697,9506ff09-09e9-4209-91ab-68b64af486b9,A15634,A15634,WAM,Malurus lamberti,5,1978,131.032778,-16.55,131.032778,-16.55,211282.8694,76.46478271,OVP,Ord Victoria Plain
348,957639e1-74c5-4be5-9892-d252388f5685,B46886,B46886,ANWC,Malurus lamberti,1,1995,153.405,-28.5789,153.405,-28.5789,45147.78511,334.482605,SEQ,South Eastern Queensland
11688,957c195a-53e7-45fb-9084-f3be5721ce2b,ABTC113312,ABTC113312,ABTC,Malurus lamberti assimilis,10,2005,139.4861,-34.3422,139.4861,-34.3422,101218.363,80.13612366,MDD,Murray Darling Depression
7777,95d1825d-5b15-46e8-b50c-ee64ec15432d,B52131,B52131,ANWC,Malurus lamberti,8,2007,131.1906,-29.9192,131.1906,-29.9192,173910,260.85849,GVD,Great Victoria Desert
7140,95f6acf3-3b8c-413e-ab61-b0decb37c444,G32144,G32144,ANWC,Malurus lamberti,7,2010,127.6862,-18.5514,127.6862,-18.5514,343475.728,412.9125061,OVP,Ord Victoria Plain
8406,963277a5-a168-4561-9948-9b0d8369e414,G30885,G30885,ANWC,Malurus lamberti,8,2008,127.3619,-28.5586,127.3619,-28.5586,380757.991,339.4086914,GVD,Great Victoria Desert
1404,977106d3-bf7b-4f9f-af1f-efd3ce84b1df,A20184,A20184,WAM,Malurus lamberti,3,1986,124.983333,-17.333333,124.983333,-17.333333,105189.6002,104.3380966,CEK,Central Kimberley
3714,97ac2954-1bf7-4292-83ce-3469194296f3,O22558,O22558,QM,Malurus lamberti,5,1984,141.033333,-23.683333,141.033333,-23.683333,667878.8346,103.9998016,CHC,Channel Country
7788,97e043f5-d1ec-4cd4-9c6a-24d338895856,O.45416,O.45416,AM,Malurus lamberti,8,1975,152.433,-32.4,152.433,-32.4,5610,19.40674019,NNC,NSW North Coast
3715,97f0fc78-dce3-4215-9f00-001696b9d6fe,B18733,B18733,ANWC,Malurus lamberti,5,1976,135.85,-16.6667,135.85,-16.6667,125635.3716,88.0113678,GFU,Gulf Fall and Uplands
7789,97f5072c-b831-476f-9cc8-740906154f45,B54133,B54133,ANWC,Malurus lamberti,8,2008,128.2333,-28.5339,128.2333,-28.5339,357695.3918,339.9645996,GVD,Great Victoria Desert
9100,982e5eb8-0562-4567-8d51-3f5f5f65a52b,B48340,B48340,ANWC,Malurus lamberti,9,1996,137.0075,-32.6506,137.0075,-32.6506,66520.85688,198.758194,GAW,Gawler
7141,986854d9-2162-49a5-9149-7bc4d2876e3c,G32143,G32143,ANWC,Malurus lamberti,7,2010,127.6862,-18.5514,127.6862,-18.5514,343475.728,412.9125061,OVP,Ord Victoria Plain
7793,98b110aa-98ff-4215-95d3-762497d3c217,B39166,B39166,ANWC,Malurus lamberti,8,1985,125.7083,-14.8167,125.7083,-14.8167,22970.8881,212.2579956,NOK,Northern Kimberley
12939,991de1cb-cef1-40a1-85d8-4abdfe5b9d2f,G29790,G29790,ANWC,Malurus lamberti,11,2009,149.8464,-29.4706,149.8464,-29.4706,323720.9493,240.4832001,BBS,Brigalow Belt South
7800,9a360569-fcb9-4fd8-a6fc-a6cef0dbda6f,B48227,B48227,ANWC,Malurus lamberti,8,1996,139.5664,-31.1189,139.5664,-31.1189,232822.9991,24.12895012,BHC,Broken Hill Complex
13429,9a92b2af-8f6e-4b3e-b725-3954a7c2de69,G5001,G5001,ANWC,Malurus lamberti,12,1998,144.7197,-30.0419,144.7197,-30.0419,706738.9951,97.6648407,MUL,Mulga Lands
7806,9b4d7a1c-5ce5-40f9-b0ec-26f6cf13a0f2,A8861,A8861,WAM,Malurus lamberti,8,1960,114.216667,-27.983056,114.216667,-27.983056,9820,99.74550629,GES,Geraldton Sandplains
7807,9b6ff743-92cc-4fdc-bcae-82ea5704cf75,B16642,B16642,ANWC,Malurus lamberti,8,1973,139.4167,-35.0833,139.4167,-35.0833,29719.26816,79.40598297,MDD,Murray Darling Depression
10786,9bb269fa-6d9b-471a-994e-bf5c04f6390f,B19643,B19643,ANWC,Malurus lamberti,10,1977,120.15,-26.4333,120.15,-26.4333,581575.8115,560.9835815,MUR,Murchison
11718,9c995a69-008f-4116-b6db-27ef25ada07a,G12795,G12795,ANWC,Malurus lamberti,10,1988,141.1333,-17.8667,141.1333,-17.8667,56528.85369,7.567935944,GUP,Gulf Plains
12350,9cd67fb9-6ad3-4822-96d8-f4209f037775,B55502,B55502,ANWC,Malurus lamberti,11,2010,148.1329,-23.8655,148.1329,-23.8655,225641.663,237.5626984,BBN,Brigalow Belt North
6385,9d1cf4be-36ba-44bc-bcfd-250d098fbf31,B52436,B52436,ANWC,Malurus lamberti,7,2009,134.192,-14.761,134.192,-14.761,132570,56.27629089,GFU,Gulf Fall and Uplands
6386,9d27e8ee-e94a-4881-a8f4-0d0377df6f40,B39996,B39996,ANWC,Malurus lamberti,7,1985,142.9333,-22.5,142.9333,-22.5,532054.1484,202.5028992,MGD,Mitchell Grass Downs
7814,9d75bed1-0bf3-4f26-b8a6-1467fbb7b2d2,A26809,A26809,WAM,Malurus lamberti,8,1998,113.05,-25.8,113.05,-25.8,4910,59.99913025,YAL,Yalgoo
5214,9f64ce86-70f8-44ff-89c7-b07cb0a2d467,A13824,A13824,WAM,Malurus lamberti,6,1975,128.883333,-19.116667,128.883333,-19.116667,415685.7063,417.8045044,TAN,Tanami
6402,a0407911-505f-4f82-8b3d-836873176e65,B29230,B29230,ANWC,Malurus lamberti,7,2001,150.7489,-34.535,150.7489,-34.535,4910,134.2348938,SYB,Sydney Basin
368,a0d8b683-4fe2-4bdd-a219-def541493c72,B18343,B18343,ANWC,Malurus lamberti,1,1976,136.2,-16.5833,136.2,-16.5833,92769.88358,101.3841019,GFU,Gulf Fall and Uplands
6412,a1bd00fd-0b1e-4449-85b7-5e6d3802b45b,A13914,A13914,WAM,Malurus lamberti,7,1975,125.75,-18.483333,125.75,-18.483333,239111.8086,149.1945038,OVP,Ord Victoria Plain
11682,a1e34fec-4d3e-4629-b403-b9b0cfea4ad6,G22841,G22841,ANWC,Malurus lamberti,10,1994,137.4506,-34.9519,137.4506,-34.9519,4910,3.629498959,EYB,Eyre Yorke Block
9749,a23b7160-1ed2-47f0-aab5-f4037fab3e8a,G27637,G27637,ANWC,Malurus lamberti,9,2004,123.6261,-17.7086,123.6261,-17.7086,24494.61165,1.940161943,DAL,Dampierland
2274,a291cdd1-4eed-4164-9b35-86742f520927,A20440,A20440,WAM,Malurus lamberti,4,1986,123.933333,-16.683333,123.933333,-16.683333,22618.97434,62.53219986,NOK,Northern Kimberley
9141,a31062a8-0876-4298-8ed2-4cbd0204b709,O.55407,O.55407,AM,Malurus lamberti,9,1981,132.9,-12.483,132.9,-12.483,49092.00037,38.80424118,PCK,Pine Creek
10841,a37aca6a-d968-4e9d-9cc8-d820c12025c6,B29337,B29337,ANWC,Malurus lamberti,10,2001,139.5917,-17.7333,139.5917,-17.7333,24494.61165,2.078464031,GUP,Gulf Plains
7829,a3b982d8-3123-4370-bf2f-3479849eafc3,A9472,A9472,WAM,Malurus lamberti,8,1964,113.666944,-24.882778,113.666944,-24.882778,4910,1.833016992,CAR,Carnarvon
11679,a4396232-c840-48d1-8b74-3c4c4f2269ee,G22939,G22939,ANWC,Malurus lamberti,10,1994,137.1958,-35.125,137.1958,-35.125,7455.212941,52.18511963,EYB,Eyre Yorke Block
13240,a4a4d4a2-6115-405a-be06-016ed3380cfa,O.46913,O.46913,AM,Malurus lamberti,12,1977,145.533,-33.533,145.533,-33.533,487870.4691,116.3515015,RIV,Riverina
12380,a5b7c769-c90c-47f6-9926-096d67508b2a,A16851,A16851,WAM,Malurus lamberti,11,1979,116.016667,-29.8,116.016667,-29.8,97415.74103,300.0158081,AVW,Avon Wheatbelt
13428,a643600a-d92d-4039-b2ae-1b4001c17824,ABTC84315,ABTC84315,ABTC,Malurus lamberti,12,1999,141.65,-36.3333,141.65,-36.3333,163576.5096,136.5704956,MDD,Murray Darling Depression
7840,a66f78c2-1427-42e4-8e0a-023108c04216,A14193,A14193,WAM,Malurus lamberti,8,1975,123.716667,-16.633333,123.716667,-16.633333,11220,74.33119965,NOK,Northern Kimberley
2292,a73f9e81-ec12-4c5f-82ea-0ffe826bbb0d,B37303,B37303,ANWC,Malurus lamberti,4,1979,125.9167,-16.5833,125.9167,-16.5833,123898.3914,478.3145142,NOK,Northern Kimberley
5249,a76b5214-de1c-40bd-955b-88ed0ec1f083,B39263,B39263,ANWC,Malurus lamberti,6,1985,153.5667,-28.325,153.5667,-28.325,22440,3.546313047,SEQ,South Eastern Queensland
7846,a7c39243-9dcd-4ad5-8c6c-fac335adaf45,A14194,A14194,WAM,Malurus lamberti,8,1975,123.716667,-16.633333,123.716667,-16.633333,11220,74.33119965,NOK,Northern Kimberley
10869,a801aeea-dc7d-434c-aaed-8eb45323a129,A15758,A15758,WAM,Malurus lamberti,10,1978,125.75,-14.916667,125.75,-14.916667,34016.22701,254.2967072,NOK,Northern Kimberley
9172,a85249da-a75f-434c-8b3c-f99bb46da4fe,O.46447,O.46447,AM,Malurus lamberti,9,1977,138.25,-29.433,138.25,-29.433,358307.5931,44.79589081,STP,Stony Plains
5252,a88f17e4-cbf1-4ac4-ad08-06e1e005341a,B14953,B14953,ANWC,Malurus lamberti,6,1972,132.8333,-12.8667,132.8333,-12.8667,71414.04694,56.47431946,PCK,Pine Creek
5253,a89130aa-4f95-4fdf-b20e-b32883866cae,A13907,A13907,WAM,Malurus lamberti,6,1975,128.333333,-19.333333,128.333333,-19.333333,428165.5848,326.9486084,TAN,Tanami
5254,a896d35e-6b49-47cc-acd5-556fe68057e4,A11799,A11799,WAM,Malurus lamberti,6,1972,125.516944,-14.55,125.516944,-14.55,4910,44.37331009,NOK,Northern Kimberley
12395,a95d1562-e7b1-4a6d-831f-0bef8b31bdd1,O9432,O9432,QM,Malurus lamberti,11,1962,153.333333,-27.983333,153.333333,-27.983333,9820,33.58116913,SEQ,South Eastern Queensland
12396,a976064c-eda2-420b-9c3e-89faf30ae278,B38625,B38625,ANWC,Malurus lamberti,11,1984,150.8,-34.2,150.8,-34.2,18516.51425,233.878006,SYB,Sydney Basin
11724,a9768830-2bd4-4359-adc0-06ba8fb59863,G12826,G12826,ANWC,Malurus lamberti,10,1988,140.8333,-17.5,140.8333,-17.5,7455.212941,3.06834507,GUP,Gulf Plains
3824,a9b5a2fc-8e09-4233-bec6-90cc03c76ada,A15633,A15633,WAM,Malurus lamberti,5,1978,130.683333,-16.033333,130.683333,-16.033333,144096.3473,114.8569031,OVP,Ord Victoria Plain
7854,a9be5424-23ed-4c58-a810-49ce31a614e0,A26805,A26805,WAM,Malurus lamberti,8,1998,113.05,-25.8,113.05,-25.8,4910,59.99913025,YAL,Yalgoo
4582,a9d1f2bf-a220-4701-bf1a-3e5cf9f38c72,G6699,G6699,ANWC,Malurus lamberti,5,2002,117.3889,-22.9406,117.3889,-22.9406,247620.1026,389.6250916,PIL,Pilbara
5264,aa0a23df-5eae-4893-a35b-fc7386cee4fd,B17233,B17233,ANWC,Malurus lamberti,6,1974,136.5167,-15.9,136.5167,-15.9,17531.60004,2.358426094,GUC,Gulf Coastal
9741,aa1d807b-e325-41ad-ad73-fb85dd3239d5,ABTC38801,ABTC38801,ABTC,Malurus lamberti,9,1998,137.6036,-26.0417,137.6036,-26.0417,734975.6054,26.7509594,SSD,Simpson Strzelecki Dunefields
10887,aa700b0d-8ea3-4db3-9109-ad8a7fd2283e,B49452,B49452,ANWC,Malurus lamberti,10,1997,142.2208,-32.2111,142.2208,-32.2111,403367.3592,73.0911026,BHC,Broken Hill Complex
7127,aa9c5cca-5231-4ff3-ac8c-1cc60202b206,G32065,G32065,ANWC,Malurus lamberti,7,2010,126.1069,-19.2103,126.1069,-19.2103,321489.5875,234.4696045,OVP,Ord Victoria Plain
9189,ab3a9feb-7da9-4ac6-95e2-0b2f30f9ba28,O.62163,O.62163,AM,Malurus lamberti,9,1990,136.35,-15.666,136.35,-15.666,4910,6.964026928,GUC,Gulf Coastal
6468,ab5e4099-5296-4204-97fd-58237dd9f434,B55371,B55371,ANWC,Malurus lamberti,7,2010,127.6862,-18.5514,127.6862,-18.5514,343475.728,412.9125061,OVP,Ord Victoria Plain
7857,ab913c63-20a8-4e32-9da1-33d59c69f2f1,B40525,B40525,ANWC,Malurus lamberti,8,1985,132.925,-12.7333,132.925,-12.7333,70223.17637,176.9438934,PCK,Pine Creek
9720,ac528957-863e-4d61-936f-13d4cfc4855d,G24377,G24377,ANWC,Malurus lamberti,9,1996,138.3494,-31.8356,138.3494,-31.8356,99991.51264,269.6065063,FLB,Flinders Lofty Block
7869,ad12e468-e316-44b9-9f3e-574295db41f6,A14149,A14149,WAM,Malurus lamberti,8,1975,123.716667,-16.633333,123.716667,-16.633333,11220,74.33119965,NOK,Northern Kimberley
400,ad78911a-197c-43d7-b999-04d7d4533d16,B00651,B00651,ANWC,Malurus lamberti,1,1962,140.35,-34.2333,140.35,-34.2333,153370.2582,41.99200058,RIV,Riverina
2317,ae9b3aef-7f90-4237-a17f-af79f4ba14bf,A20714,A20714,WAM,Malurus lamberti,4,1986,128.4,-17.532778,128.4,-17.532778,234216.4729,239.9544983,OVP,Ord Victoria Plain
3858,aed739a1-dbe8-4a29-95e0-96ec684569ab,O30433,O30433,QM,Malurus lamberti,5,1994,143.183333,-24.1,143.183333,-24.1,653223.6684,181.3992004,MGD,Mitchell Grass Downs
9208,af5e9ef6-f33f-48ac-81bd-d54142286320,O.45789,O.45789,AM,Malurus lamberti,9,1976,141.7,-31.083,141.7,-31.083,400425.8303,177.7026062,BHC,Broken Hill Complex
2323,af7f37bc-1f42-4378-a97c-72d33f92cd1a,B37304,B37304,ANWC,Malurus lamberti,4,1979,125.9167,-16.5833,125.9167,-16.5833,123898.3914,478.3145142,NOK,Northern Kimberley
8400,afa0684d-f71a-443a-9ae8-4eb0b18ef864,ABTC119649,ABTC119649,ABTC,Malurus lamberti,8,2007,131.1906,-29.9192,131.1906,-29.9192,173910,260.85849,GVD,Great Victoria Desert
6933,ANWC_0055,B55221,B55221,ANWC,Malurus lamberti,7,2010,126.0601,-18.7082,126.0601,-18.7082,280157.4973,239.5233002,OVP,Ord Victoria Plain
6934,ANWC_0056,B55255,B55255,ANWC,Malurus lamberti,7,2010,126.0972,-18.7338,126.0972,-18.7338,287328.5132,291.7756042,OVP,Ord Victoria Plain
11595,ANWC_0057,B55475,B55475,ANWC,Malurus lamberti,10,2010,151.2253,-28.6178,151.2253,-28.6178,214880.2562,374.7987976,NAN,Nandewar
11596,ANWC_0058,B55478,B55478,ANWC,Malurus lamberti,10,2010,149.0518,-28.3577,149.0518,-28.3577,411373.2015,209.853302,BBS,Brigalow Belt South
12881,ANWC_0059,B55591,B55591,ANWC,Malurus lamberti,11,2011,151.2307,-28.6106,151.2307,-28.6106,214880.2562,382.2504883,NAN,Nandewar
12882,ANWC_0060,B55593,B55593,ANWC,Malurus lamberti,11,2011,151.2107,-28.61,151.2107,-28.61,219157.1313,375.9753113,NAN,Nandewar
12883,ANWC_0061,B55594,B55594,ANWC,Malurus lamberti,11,2011,151.2054,-28.6098,151.2054,-28.6098,219157.1313,381.188385,NAN,Nandewar
12884,ANWC_0062,B55595,B55595,ANWC,Malurus lamberti,11,2011,151.2015,-28.6032,151.2015,-28.6032,219157.1313,393.2861023,NAN,Nandewar
12885,ANWC_0063,B55603,B55603,ANWC,Malurus lamberti,11,2011,150.9771,-28.5716,150.9771,-28.5716,239091.4405,319.6314087,BBS,Brigalow Belt South
12886,ANWC_0064,B55604,B55604,ANWC,Malurus lamberti,11,2011,150.879,-28.5364,150.879,-28.5364,250395.8838,283.6929016,BBS,Brigalow Belt South
12887,ANWC_0065,B55606,B55606,ANWC,Malurus lamberti,11,2011,150.6139,-28.3467,150.6139,-28.3467,265531.7068,245.3623962,BBS,Brigalow Belt South
12888,ANWC_0066,B55607,B55607,ANWC,Malurus lamberti,11,2011,151.237,-28.6107,151.237,-28.6107,214880.2562,391.0541077,NAN,Nandewar
12889,ANWC_0067,B55617,B55617,ANWC,Malurus lamberti,11,2011,151.3593,-28.5358,151.3593,-28.5358,209363.1715,390.9237061,NAN,Nandewar
12890,ANWC_0068,B55618,B55618,ANWC,Malurus lamberti,11,2011,151.6186,-28.1914,151.6186,-28.1914,173220.8974,511.8118896,NAN,Nandewar
12891,ANWC_0069,B55619,B55619,ANWC,Malurus lamberti,11,2011,151.5534,-28.2812,151.5534,-28.2812,184492.5343,587.5687256,NAN,Nandewar
11597,ANWC_0070,B55706,B55706,ANWC,Malurus lamberti,10,2012,152.6657,-28.4336,152.6657,-28.4336,86433.75787,455.3935852,SEQ,South Eastern Queensland
11598,ANWC_0071,B55712,B55712,ANWC,Malurus lamberti,10,2012,152.9328,-30.5443,152.9328,-30.5443,4910,181.5856934,NNC,NSW North Coast
11599,ANWC_0072,B55733,B55733,ANWC,Malurus lamberti,10,2012,152.243,-31.8241,152.243,-31.8241,37033.0285,60.38249969,NNC,NSW North Coast
11600,ANWC_0073,B55734,B55734,ANWC,Malurus lamberti,10,2012,152.243,-31.8241,152.243,-31.8241,37033.0285,60.38249969,NNC,NSW North Coast
7145,b09958c1-deec-40cb-9f4c-b06e314dbaf0,G32208,G32208,ANWC,Malurus lamberti,7,2010,128.759,-18.107,128.759,-18.107,303426.761,358.9408875,OVP,Ord Victoria Plain
628,b0cdcecb-30b4-4b17-942d-51a353e6c141,G23483,G23483,ANWC,Malurus lamberti,1,1995,153.405,-28.5789,153.405,-28.5789,45147.78511,334.482605,SEQ,South Eastern Queensland
877,b10978d4-f46a-44aa-9a25-5389295dae29,B16020,B16020,ANWC,Malurus lamberti,2,1973,132.95,-12.3833,132.95,-12.3833,44363.26634,16.07180977,DAC,Darwin Coastal
5283,b111a4b9-45c0-4d73-9e70-b4414f28fe51,O.65925,O.65925,AM,Malurus lamberti,6,1995,138.183,-18.55,138.183,-18.55,181127.859,167.1096954,GFU,Gulf Fall and Uplands
11751,b137e46d-423e-4425-aaeb-cf5786bfcb19,G40539,G40539,ANWC,Malurus lamberti,10,2015,132.424,-13.427,132.424,-13.427,117810,252.2875061,ARP,Arnhem Plateau
9217,b15c28ae-6f91-49d1-9718-7980f5240293,A34159,A34159,WAM,Malurus lamberti,9,2002,126.033333,-14.416667,126.033333,-14.416667,4910,110.8195038,NOK,Northern Kimberley
7131,b17f574e-af74-49f4-a31b-7a9923dfdf42,G32081,G32081,ANWC,Malurus lamberti,7,2010,126.133,-19.1147,126.133,-19.1147,314362.1677,213.9104004,OVP,Ord Victoria Plain
9220,b1e4b5b9-6574-45e6-be6c-5ee12ca6b067,B06039,B06039,ANWC,Malurus lamberti,9,1966,135.1833,-27.5,135.1833,-27.5,535606.3676,163.8592072,STP,Stony Plains
3875,b1e87d74-340a-4a00-bcfb-7e3a3e85ffba,B32899,B32899,ANWC,Malurus lamberti,5,2002,125.5128,-26.7461,125.5128,-26.7461,613786.4567,433.6838074,GID,Gibson Desert
7135,b2125352-08d5-4ba5-b7af-c79ba029f1a2,G31995,G31995,ANWC,Malurus lamberti,7,2010,126.0726,-18.7562,126.0726,-18.7562,287328.5132,226.3099976,OVP,Ord Victoria Plain
3877,b25d0645-30ac-4d4e-a754-5a3f470722d9,O6711,O6711,QM,Malurus lamberti,5,1960,148.466667,-28.016667,148.466667,-28.016667,456767.8243,199.6663971,MUL,Mulga Lands
9229,b2b97c13-6451-4ef9-b5c8-11040d0d15af,O.62159,O.62159,AM,Malurus lamberti,9,1990,125.716,-14.666,125.716,-14.666,7455.212941,110.405899,NOK,Northern Kimberley
11731,b43b2e57-47b8-410b-9045-c3e2b166729d,G40544,G40544,ANWC,Malurus lamberti,10,2015,132.433,-13.517,132.433,-13.517,129030,210.2633057,ARP,Arnhem Plateau
9242,b5a58981-9c99-4633-b0d3-dbcf28a2f2d6,B48426,B48426,ANWC,Malurus lamberti,9,1996,133.6228,-32.0411,133.6228,-32.0411,7455.212941,23.37136078,EYB,Eyre Yorke Block
416,b5effaa8-b64b-48a3-a1fe-e3c9b6258580,A8859,A8859,WAM,Malurus lamberti,1,1960,114.166944,-27.616944,114.166944,-27.616944,4910,161.8003998,GES,Geraldton Sandplains
1450,b6d7d0cd-dcc8-4de8-83bb-3c1d424727e4,A20193,A20193,WAM,Malurus lamberti,3,1986,125.133333,-17.183333,125.133333,-17.183333,95047.24404,268.8688049,CEK,Central Kimberley
6518,b7084ee4-a426-4513-b694-59c687ecd597,B54738,B54738,ANWC,Malurus lamberti,7,2009,133.728,-14.17,133.728,-14.17,191864.83,164.585907,GFU,Gulf Fall and Uplands
6521,b78c7caf-a281-457c-9b72-186969537b4b,O11717,O11717,QM,Malurus lamberti,7,1971,140.283333,-22.533333,140.283333,-22.533333,538560,314.7121887,MGD,Mitchell Grass Downs
9246,b7ad4271-8960-4a7b-b3dd-c59d90006ad8,A35582,A35582,WAM,Malurus lamberti,9,2004,115.569722,-22.119722,115.569722,-22.119722,63364.82936,146.3050995,PIL,Pilbara
12451,b85dee2d-7060-4a90-9d7c-5c8e1be5a78c,B55511,B55511,ANWC,Malurus lamberti,11,2010,150.9848,-24.8005,150.9848,-24.8005,98184.00073,506.435791,BBS,Brigalow Belt South
9250,b8d55a75-6504-449c-af34-48a03c2c5ba9,B40284,B40284,ANWC,Malurus lamberti,9,1985,133.7833,-27.3,133.7833,-27.3,525551.9242,303.9760132,STP,Stony Plains
11723,b9052365-3456-43e3-ac10-6d7c399af981,G2311,G2311,ANWC,Malurus lamberti,10,2001,139.8,-17.625,139.8,-17.625,5610,0.9631688,GUP,Gulf Plains
5315,b919ffda-71ed-431d-8a36-7ae5b44f3262,A8858,A8858,WAM,Malurus lamberti,6,1960,115.8,-31.85,115.8,-31.85,4910,19.09763908,SWA,Swan Coastal Plain
10982,b9588d89-608d-46bc-a956-d0dd2e8f98bf,O29210,O29210,QM,Malurus lamberti,10,1990,143.1,-24.233333,143.1,-24.233333,668119.1626,179.4656067,CHC,Channel Country
3914,ba0f7a3c-e406-481e-b938-7812ecd4911a,A15625,A15625,WAM,Malurus lamberti,5,1978,129.766944,-15.466944,129.766944,-15.466944,34016.22701,9.693307877,VIB,Victoria Bonaparte
11732,baa78027-13a7-49d0-9558-4463e33d40ed,G40530,G40530,ANWC,Malurus lamberti,10,2015,132.433,-13.517,132.433,-13.517,129030,210.2633057,ARP,Arnhem Plateau
7926,bbb690c1-acc8-461b-acd9-220969bacca0,B16644,B16644,ANWC,Malurus lamberti,8,1973,139.4167,-35.0833,139.4167,-35.0833,29719.26816,79.40598297,MDD,Murray Darling Depression
3929,bbd47076-082d-4220-a3c9-8c9d17f76f33,A12728,A12728,WAM,Malurus lamberti,5,1973,115,-28.332778,115,-28.332778,48267.18243,269.7836914,GES,Geraldton Sandplains
2369,bc1807cf-7f48-4dd2-b35c-02f18bea93ad,O.41476,O.41476,AM,Malurus lamberti,4,1965,132.766,-23.95,132.766,-23.95,855155.0351,579.5880737,MAC,MacDonnell Ranges
7928,bc63ba71-00d2-47ed-82eb-4d5277bef361,O.46338,O.46338,AM,Malurus lamberti,8,1977,137.833,-32.516,137.833,-32.516,11220,27.91091919,FLB,Flinders Lofty Block
3933,bc873f33-ac3d-4634-ac98-3e7d551fc99f,A15642,A15642,WAM,Malurus lamberti,5,1978,130.966667,-17.483333,130.966667,-17.483333,292396.5013,216.2207947,OVP,Ord Victoria Plain
7122,bc99f647-1314-4f63-9422-161c0bda22b7,ABTC119496,ABTC119496,ABTC,Malurus lamberti,7,2007,130.1203,-29.7253,130.1203,-29.7253,206737.9929,158.6623993,GVD,Great Victoria Desert
3941,bd48abdf-fdfe-4cd9-bd04-09c14164a334,A8880,A8880,WAM,Malurus lamberti,5,1960,113.816667,-23.116667,113.816667,-23.116667,4910,26.76074982,CAR,Carnarvon
11740,be3f1e58-6314-4116-be5b-424c65415cce,G40535,G40535,ANWC,Malurus lamberti,10,2015,132.426,-13.437,132.426,-13.437,117810,267.9241028,ARP,Arnhem Plateau
6551,be91f186-5e1d-4f9b-bdb9-1d43810c131f,O7011,O7011,QM,Malurus lamberti,7,1961,149.783333,-22.766667,149.783333,-22.766667,29764.93575,119.8094025,BBN,Brigalow Belt North
9272,be99c9ec-d4f0-4b05-b7c6-f10acc396e3a,O.62161,O.62161,AM,Malurus lamberti,9,1990,125.716,-14.666,125.716,-14.666,7455.212941,110.405899,NOK,Northern Kimberley
13430,bece95f1-178d-43e2-871b-c5753e2f1f2d,ABTC26626,ABTC26626,ABTC,Malurus lamberti assimilis,12,1984,133.5,-26.9333,133.5,-26.9333,552225.3294,361.625885,CER,Central Ranges
11727,bf0b5eed-1748-4cd0-9668-006a09e03c3e,G40547,G40547,ANWC,Malurus lamberti,10,2015,132.456,-13.526,132.456,-13.526,129123.3867,149.0065002,ARP,Arnhem Plateau
7139,c02998e5-8194-4e8f-8210-29771ac505ee,G32029,G32029,ANWC,Malurus lamberti,7,2010,126.0343,-18.6768,126.0343,-18.6768,280157.4973,263.5488892,OVP,Ord Victoria Plain
11026,c041db8d-974a-447c-a7ad-ce9cc57feafb,A15759,A15759,WAM,Malurus lamberti,10,1978,125.75,-14.916667,125.75,-14.916667,34016.22701,254.2967072,NOK,Northern Kimberley
3960,c06e6fbf-003b-4f69-af6a-b7d731c20e79,B17157,B17157,ANWC,Malurus lamberti,5,1974,139.4083,-20.45,139.4083,-20.45,307533.4169,399.3669128,MII,Mount Isa Inlier
12483,c09b87a1-5cba-449f-bde0-b0c9dd606dcd,A9552,A9552,WAM,Malurus lamberti,11,1964,115.816944,-31.932778,115.816944,-31.932778,9820,20.13348961,SWA,Swan Coastal Plain
7949,c1828929-0122-4199-903f-7f63f40ef924,O10713,O10713,QM,Malurus lamberti,8,1966,152.683333,-27.083333,152.683333,-27.083333,36155.01763,425.0510864,SEQ,South Eastern Queensland
3972,c1975ba8-ee9a-4a17-b17f-a005e7d0c78e,B48020,B48020,ANWC,Malurus lamberti,5,1996,143,-24.2167,143,-24.2167,674296.9686,199.9998932,CHC,Channel Country
11038,c1e54fa6-01f0-4547-b7e8-d2d319ab5662,B46630,B46630,ANWC,Malurus lamberti,10,1994,138.0639,-33.5,138.0639,-33.5,14730,28.24226952,EYB,Eyre Yorke Block
11690,c2448e56-6a22-4cba-8be1-608e1ce677a1,G23049,G23049,ANWC,Malurus lamberti,10,1994,138.0639,-33.5,138.0639,-33.5,14730,28.24226952,EYB,Eyre Yorke Block
6564,c2b5a929-bcd3-4c3c-b63b-65f7330739f6,B55220,B55220,ANWC,Malurus lamberti,7,2010,126.0601,-18.7082,126.0601,-18.7082,280157.4973,239.5233002,OVP,Ord Victoria Plain
7953,c2dc3387-74df-4a35-b647-e48d5d40b2c8,B54288,B54288,ANWC,Malurus lamberti,8,2008,126.0433,-28.0342,126.0433,-28.0342,467283.8701,395.9198914,GVD,Great Victoria Desert
9739,c33fb6dc-a83c-421f-8c89-73a566abe7b9,ABTC37976,ABTC37976,ABTC,Malurus lamberti assimilis,9,1997,136.7694,-26.1936,136.7694,-26.1936,726499.4735,60.87197876,SSD,Simpson Strzelecki Dunefields
12497,c346b0d2-eec3-40df-9868-9bc2d26de915,O.53048,O.53048,AM,Malurus lamberti,11,1979,128.733,-15.766,128.733,-15.766,73934.56702,59.76517868,VIB,Victoria Bonaparte
6566,c3b5efac-b89f-47d7-b9db-7203425c7d96,B52442,B52442,ANWC,Malurus lamberti,7,2009,133.609,-15.856,133.609,-15.856,223460.0369,180.767395,STU,Sturt Plateau
7963,c3f7ff0f-2be6-481c-94c2-13a255ea5f45,B54287,B54287,ANWC,Malurus lamberti,8,2008,126.0433,-28.0342,126.0433,-28.0342,467283.8701,395.9198914,GVD,Great Victoria Desert
11049,c40f67e4-d716-4bc4-96b3-aa1349dcae94,O.45808,O.45808,AM,Malurus lamberti,10,1976,141.983,-29.466,141.983,-29.466,525336.9376,169.7218933,CHC,Channel Country
7974,c5ea0ca8-b3c7-482e-a5ad-ac77e5ed930d,B06776,B06776,ANWC,Malurus lamberti,8,1967,136.4333,-15.7167,136.4333,-15.7167,4910,3.904217958,GUC,Gulf Coastal
5351,c620edea-d5d7-4499-9b2f-c42d0a2cd5a9,A14366,A14366,WAM,Malurus lamberti,6,1975,126.766667,-14.166667,126.766667,-14.166667,11309.48717,52.21757889,NOK,Northern Kimberley
6578,c726b02e-7a2f-45d2-8c13-bd70c8ba06f8,B55401,B55401,ANWC,Malurus lamberti,7,2010,127.7076,-18.9261,127.7076,-18.9261,382269.1367,359.7543945,OVP,Ord Victoria Plain
8398,c7461441-7a31-4dcb-adea-20a170e8ee84,ABTC119904,ABTC119904,ABTC,Malurus lamberti,8,2007,131.6447,-30.1594,131.6447,-30.1594,152407.0067,244.7776947,GVD,Great Victoria Desert
8403,c7a2cdd3-8214-49b4-b71b-b7145a4d6879,G30799,G30799,ANWC,Malurus lamberti,8,2008,128.4172,-29.5719,128.4172,-29.5719,242875.1753,209.3856049,NUL,Nullarbor
4022,c7b1a7c0-c637-4a99-ac42-8f92d9019206,A15650,A15650,WAM,Malurus lamberti,5,1978,128.033333,-18.233333,128.033333,-18.233333,308589.0643,275.4350891,OVP,Ord Victoria Plain
1478,c7c276b1-0c71-4c4e-9c3e-803a138dee00,A20183,A20183,WAM,Malurus lamberti,3,1986,124.983333,-17.333333,124.983333,-17.333333,105189.6002,104.3380966,CEK,Central Kimberley
11073,c7d92f05-0d01-4c81-8e37-845fad62e1bb,B41664,B41664,ANWC,Malurus lamberti,10,1988,140.9667,-17.4667,140.9667,-17.4667,14910.42588,1.826385975,GUP,Gulf Plains
12519,c7da277c-8c7b-4503-b23f-cd58d94ec1e2,B16798,B16798,ANWC,Malurus lamberti,11,1973,137.5167,-33.0333,137.5167,-33.0333,4910,16.72199059,GAW,Gawler
4572,c7eda5ca-4b14-40ab-a9b7-e60fc03ab4cd,G6406,G6406,ANWC,Malurus lamberti,5,2002,125.6119,-26.8006,125.6119,-26.8006,606741.376,460.0480957,GID,Gibson Desert
2406,c81c3c23-2a43-4101-a443-3256fe27e9f6,O28091,O28091,QM,Malurus lamberti,4,1988,139.016667,-16.966667,139.016667,-16.966667,4910,5.083768845,GUP,Gulf Plains
13295,cb538bab-d901-44b7-aee1-9d6ff41b3c3c,A9704,A9704,WAM,Malurus lamberti,12,1965,114.682778,-27.224444,114.682778,-27.224444,65256.17902,205.816803,YAL,Yalgoo
11090,cb552187-b762-4292-838f-bd06cdde6629,B17601,B17601,ANWC,Malurus lamberti,10,1974,138.35,-29.2,138.35,-29.2,382103.9708,35.55672073,STP,Stony Plains
5366,cb754e4c-c5e5-459a-943c-a36846078556,B17206,B17206,ANWC,Malurus lamberti,6,1974,136.0667,-16.2,136.0667,-16.2,70635.83368,68.39063263,GFU,Gulf Fall and Uplands
1484,cb7ed67c-a7f3-46f9-95d5-497e2431a0e0,A20198,A20198,WAM,Malurus lamberti,3,1986,125.3,-17.166667,125.3,-17.166667,102726.7682,425.6648865,CEK,Central Kimberley
4046,cbcb1fe5-d76d-4be0-8840-99e7be792b10,B32773,B32773,ANWC,Malurus lamberti,5,2002,134.1861,-28.4108,134.1861,-28.4108,420018.4383,256.7723083,STP,Stony Plains
6598,cc4b999d-f7ad-4eae-b8a3-454fd9e30f3d,A13958,A13958,WAM,Malurus lamberti,7,1975,125.316667,-18.5,125.316667,-18.5,206916.9495,84.0401535,DAL,Dampierland
4050,cc8aeb9d-3efd-4a53-969e-17c390a644fa,A15639,A15639,WAM,Malurus lamberti,5,1978,130.966667,-17.483333,130.966667,-17.483333,292396.5013,216.2207947,OVP,Ord Victoria Plain
9347,cdac0b73-ae57-4e13-8846-0a819ede1eca,B40118,B40118,ANWC,Malurus lamberti,9,1985,139.9,-27.5333,139.9,-27.5333,601425.677,43.84899902,CHC,Channel Country
13303,ce07f518-0600-4fa3-8e41-8d1f5f1d81f3,B40925,B40925,ANWC,Malurus lamberti,12,1987,150.6333,-34.9333,150.6333,-34.9333,14730,17.71093941,SYB,Sydney Basin
4583,ce518d78-5861-4222-b122-bc37a71c3ee1,G6693,G6693,ANWC,Malurus lamberti,5,2002,117.4347,-22.9314,117.4347,-22.9314,248057.8322,473.6636047,PIL,Pilbara
13305,ce8aabe5-ae37-4f5c-9037-3b17aceb1d0f,O26576,O26576,QM,Malurus lamberti,12,1985,152.716667,-26.65,152.716667,-26.65,39280,203.4994965,SEQ,South Eastern Queensland
8002,cee1c91f-182b-4fd1-b974-865af3f8b32b,B54119,B54119,ANWC,Malurus lamberti,8,2008,127.445,-28.4661,127.445,-28.4661,386780.8931,308.6156921,GVD,Great Victoria Desert
12958,cf291072-9a61-465e-8b2f-2cea9ef6cc03,G29784,G29784,ANWC,Malurus lamberti,11,2009,143.1869,-24.1106,143.1869,-24.1106,653223.6684,178.7265015,MGD,Mitchell Grass Downs
11113,cf323c82-dd08-4ae1-9424-d2ae10fb4dbe,B15246,B15246,ANWC,Malurus lamberti,10,1972,132.95,-13.0833,132.95,-13.0833,102726.7682,23.8055191,ARP,Arnhem Plateau
9357,cff061d6-b2ad-4fe7-9855-4590301b27ab,O27592,O27592,QM,Malurus lamberti,9,1986,142.616667,-18.783333,142.616667,-18.783333,243868.8685,175.4008942,GUP,Gulf Plains
9719,d0965407-aa46-4431-a13d-256cd5c1cb7f,G24560,G24560,ANWC,Malurus lamberti,9,1996,133.6228,-32.0411,133.6228,-32.0411,7455.212941,23.37136078,EYB,Eyre Yorke Block
6611,d09ad2ac-c9e1-4cba-ae04-4f97d6133ea5,B37046,B37046,ANWC,Malurus lamberti,7,1977,139.8333,-34.2667,139.8333,-34.2667,129085.665,39.94947052,MDD,Murray Darling Depression
6615,d0f864eb-5caf-436d-9aca-60d91a6dfc0f,B55415,B55415,ANWC,Malurus lamberti,7,2010,128.6945,-18.1345,128.6945,-18.1345,300873.5297,337.7535095,OVP,Ord Victoria Plain
4080,d14ce4ce-5492-4d6a-b70f-a9556a4551db,A15667,A15667,WAM,Malurus lamberti,5,1978,128.933333,-18.033333,128.933333,-18.033333,298851.0032,386.8828125,OVP,Ord Victoria Plain
6618,d17ad1c2-f5b7-400e-a25e-ea081be7598d,B55279,B55279,ANWC,Malurus lamberti,7,2010,126.1982,-19.189,126.1982,-19.189,329049.5514,239.9998016,GSD,Great Sandy Desert
4084,d1d5769e-6375-48e8-bd9e-54cc31ccc4f3,B33180,B33180,ANWC,Malurus lamberti,5,2002,117.3889,-22.9406,117.3889,-22.9406,247620.1026,389.6250916,PIL,Pilbara
4086,d1da08c8-955c-475e-a7c1-e3b9182b918d,O.65932,O.65932,AM,Malurus lamberti,5,1995,138.05,-18.583,138.05,-18.583,192155.2836,229.1999054,GFU,Gulf Fall and Uplands
1497,d1e81499-4fb9-4ba9-b18d-5da255bde317,A20187,A20187,WAM,Malurus lamberti,3,1986,124.983333,-17.333333,124.983333,-17.333333,105189.6002,104.3380966,CEK,Central Kimberley
11741,d20aea76-ee9e-41f9-9af6-23979b619e60,G40528,G40528,ANWC,Malurus lamberti,10,2015,132.423,-13.435,132.423,-13.435,117810,152.1941986,ARP,Arnhem Plateau
11141,d364ab15-67a3-4a92-a4c5-20f07bec14f3,B46574,B46574,ANWC,Malurus lamberti,10,1994,137.1958,-35.125,137.1958,-35.125,7455.212941,52.18511963,EYB,Eyre Yorke Block
6635,d429368f-8e44-4fed-9b9b-15a3048aadbc,B55222,B55222,ANWC,Malurus lamberti,7,2010,126.0726,-18.7562,126.0726,-18.7562,287328.5132,226.3099976,OVP,Ord Victoria Plain
4571,d44d9815-b56e-4dbc-94d6-43def7284f0b,G6290,G6290,ANWC,Malurus lamberti,5,2002,134.1861,-28.4108,134.1861,-28.4108,420018.4383,256.7723083,STP,Stony Plains
12564,d4636631-41b3-41a0-a605-6b74e2089fbe,B19485,B19485,ANWC,Malurus lamberti,11,1976,139.5,-26.6833,139.5,-26.6833,685123.7384,13.10801983,CHC,Channel Country
4109,d4724118-512c-4ab7-91db-ed1bc0a29126,A15622,A15622,WAM,Malurus lamberti,5,1978,129.766944,-15.466944,129.766944,-15.466944,34016.22701,9.693307877,VIB,Victoria Bonaparte
1500,d47b03ce-9162-42af-8855-a29659203cf2,A20167,A20167,WAM,Malurus lamberti,3,1986,125.95,-16.666944,125.95,-16.666944,129617.2411,398.0091858,CEK,Central Kimberley
9374,d50474d9-1af7-42be-b996-62ae0ef4732b,A17122,A17122,WAM,Malurus lamberti,9,1981,116.533333,-26.983333,116.533333,-26.983333,239915.145,319.5477905,MUR,Murchison
5406,d61853b9-11d4-4995-b5e8-7e1d2d3cb8a8,A13825,A13825,WAM,Malurus lamberti,6,1975,128.883333,-19.116667,128.883333,-19.116667,415685.7063,417.8045044,TAN,Tanami
1503,d72f951b-a4df-418b-987d-daba9a590a39,A20166,A20166,WAM,Malurus lamberti,3,1986,125.95,-16.666944,125.95,-16.666944,129617.2411,398.0091858,CEK,Central Kimberley
5409,d7679b7a-be87-4eb1-a86c-0cf30852c17c,A15620,A15620,WAM,Malurus lamberti,6,1978,129.583333,-15.95,129.583333,-15.95,89760,190.7406006,VIB,Victoria Bonaparte
4133,d7c4d772-feda-4235-88f4-bb5afef7f094,B28097,B28097,ANWC,Malurus lamberti,5,1996,142.4522,-23.0297,142.4522,-23.0297,602247.3034,248.2324982,CHC,Channel Country
6649,d7f6599b-9d3e-4233-91f5-7ed14d2c6644,B13894,B13894,ANWC,Malurus lamberti,7,1971,132.8333,-12.8667,132.8333,-12.8667,71414.04694,56.47431946,PCK,Pine Creek
4136,d826f1c9-845a-45dd-9d22-55af80555f90,A36181,A36181,WAM,Malurus lamberti,5,2005,125.2,-15.1,125.2,-15.1,0,148.9687042,NOK,Northern Kimberley
7153,d8837c1c-53b6-47ff-b33c-adfc4b760ff4,G29485,G29485,ANWC,Malurus lamberti,7,2009,133.609,-15.856,133.609,-15.856,223460.0369,180.767395,STU,Sturt Plateau
4138,d9336588-3669-406e-8b46-1040dba72307,A14003,A14003,WAM,Malurus lamberti,5,1975,115.35,-25.516667,115.35,-25.516667,117383.4831,219.218399,CAR,Carnarvon
8399,da0ae6f7-d38c-4304-b8af-08df77c8e845,ABTC119685,ABTC119685,ABTC,Malurus lamberti,8,2007,131.5667,-30.1544,131.5667,-30.1544,149854.718,287.884613,GVD,Great Victoria Desert
6661,da8f6a7f-4d34-47b8-9392-66f224c07255,B55161,B55161,ANWC,Malurus lamberti,7,2010,127.9829,-16.429,127.9829,-16.429,106703.0281,174.842804,VIB,Victoria Bonaparte
6662,da972607-8f94-467a-be77-f0d5f93fdc87,B55308,B55308,ANWC,Malurus lamberti,7,2010,126.133,-19.1147,126.133,-19.1147,314362.1677,213.9104004,OVP,Ord Victoria Plain
9401,db456098-7bb5-412b-af1b-789a1d0d3701,B20474,B20474,ANWC,Malurus lamberti,9,1993,149.0939,-23.7703,149.0939,-23.7703,158414.5527,851.2227173,BBS,Brigalow Belt South
8055,dbff6117-29cf-4e37-8ac0-a1b4fbaea8cc,B54019,B54019,ANWC,Malurus lamberti,8,2008,128.5172,-29.57,128.5172,-29.57,240681.5207,210.6266937,NUL,Nullarbor
6678,dc476cd1-3dff-4e21-8080-d93c0f104f0f,A13866,A13866,WAM,Malurus lamberti,7,1975,128.083333,-19.233333,128.083333,-19.233333,415401.2428,315.7370911,TAN,Tanami
4158,dcbe6937-5cef-40c6-a152-20213daefa6d,B32845,B32845,ANWC,Malurus lamberti,5,2002,133.115,-25.2233,133.115,-25.2233,725647.0622,414.2562866,FIN,Finke
2466,dcd8a92a-0696-486a-b8e3-677486a43921,B47844,B47844,ANWC,Malurus lamberti,4,1996,142.95,-29.7333,142.95,-29.7333,581052.2911,99.99999237,CHC,Channel Country
5437,dd411736-8f2e-4008-bf65-79ec6d545fd4,B17307,B17307,ANWC,Malurus lamberti,6,1974,137.6667,-17.9,137.6667,-17.9,138948.7866,175.7682037,GFU,Gulf Fall and Uplands
11222,ddb283e1-58d2-4525-ace1-8d8d57fd015a,O19124,O19124,QM,Malurus lamberti,10,1982,140.833333,-23.8,140.833333,-23.8,678810,109.8123016,MGD,Mitchell Grass Downs
11725,de985c60-a59c-45e2-bf4b-d06ce48844b1,G12849,G12849,ANWC,Malurus lamberti,10,1988,140.9667,-17.4667,140.9667,-17.4667,14910.42588,1.826385975,GUP,Gulf Plains
4169,df05f5dd-e46d-44fc-91dd-e843fa1d9070,A15608,A15608,WAM,Malurus lamberti,5,1978,131.045,-16.399722,131.045,-16.399722,199562.5706,88.96775818,OVP,Ord Victoria Plain
6692,df12a211-6748-4c39-9f8f-a7b089778cfd,A13915,A13915,WAM,Malurus lamberti,7,1975,125.75,-18.483333,125.75,-18.483333,239111.8086,149.1945038,OVP,Ord Victoria Plain
7117,e1469a38-0ec1-44aa-9783-4fa4af6a9019,G2080,G2080,ANWC,Malurus lamberti,7,2001,150.7489,-34.535,150.7489,-34.535,4910,134.2348938,SYB,Sydney Basin
8401,e14cb2fa-e6c4-4b8b-8504-3b844843810b,G30867,G30867,ANWC,Malurus lamberti,8,2008,128.5947,-29.5733,128.5947,-29.5733,239728.0553,210.5865021,NUL,Nullarbor
11710,e246e504-5cfd-41ed-a9fa-d0a6253285a0,G32253,G32253,ANWC,Malurus lamberti,10,2010,145.1931,-28.1164,145.1931,-28.1164,761784.6161,174.6788025,MUL,Mulga Lands
12949,e2805fe2-55fc-4ddc-b263-49499a0eb311,G32350,G32350,ANWC,Malurus lamberti,11,2011,151.1162,-28.5716,151.1162,-28.5716,226189.7434,318.7232056,BBS,Brigalow Belt South
6707,e33698e2-b828-4808-9211-26c4f61e4e68,B28530,B28530,ANWC,Malurus lamberti,7,1996,143.2361,-24.1611,143.2361,-24.1611,654585.914,172.0037994,MGD,Mitchell Grass Downs
11709,e3f0471a-cf08-443f-a684-3ef6c5a9a6b0,G32251,G32251,ANWC,Malurus lamberti,10,2010,149.0518,-28.3577,149.0518,-28.3577,411373.2015,209.853302,BBS,Brigalow Belt South
9737,e3fd76f8-bce0-415b-b532-977a78323aa1,ABTC37991,ABTC37991,ABTC,Malurus lamberti assimilis,9,1997,136.8656,-26.325,136.8656,-26.325,709311.3745,51.11225891,SSD,Simpson Strzelecki Dunefields
12626,e4622f30-765c-44c4-bbca-5461451a6ba7,O30542,O30542,QM,Malurus lamberti,11,1990,152.883333,-27.233333,152.883333,-27.233333,19640,36.70603943,SEQ,South Eastern Queensland
5460,e467f8df-dfba-4313-bf33-845b8df8932f,B18856,B18856,ANWC,Malurus lamberti,6,1976,136.1833,-16.6,136.1833,-16.6,96917.76824,60.71355057,GFU,Gulf Fall and Uplands
4209,e47c9036-992c-42f9-b2be-c28c4cd5ab64,A15626,A15626,WAM,Malurus lamberti,5,1978,129.766944,-15.466944,129.766944,-15.466944,34016.22701,9.693307877,VIB,Victoria Bonaparte
11704,e4de417c-9bb1-4e60-ba26-fa5fd974996b,G32246,G32246,ANWC,Malurus lamberti,10,2010,151.2253,-28.6178,151.2253,-28.6178,214880.2562,374.7987976,NAN,Nandewar
12633,e5439c42-88eb-4691-8218-58585ce0247a,B18152,B18152,ANWC,Malurus lamberti,11,1975,136.1833,-16.6,136.1833,-16.6,96917.76824,60.71355057,GFU,Gulf Fall and Uplands
8098,e66d13cb-79a2-4508-a193-7f2f6efac501,B54149,B54149,ANWC,Malurus lamberti,8,2008,128.0967,-28.4636,128.0967,-28.4636,370961.9195,332.9543152,GVD,Great Victoria Desert
11698,e74c4227-e77b-45f3-bb9d-81380c0a8cc0,G26158,G26158,ANWC,Malurus lamberti,10,1997,145.7606,-29.9222,145.7606,-29.9222,656184.4973,102.9981003,MUL,Mulga Lands
9441,e7941ffe-1fbf-4e02-bc1f-445067957408,B31655,B31655,ANWC,Malurus lamberti,9,1999,145.4567,-32.5811,145.4567,-32.5811,544293.9027,160.0986023,MDD,Murray Darling Depression
4228,e8677030-c500-4e9f-8ed6-3cb04a4075a9,A15647,A15647,WAM,Malurus lamberti,5,1978,130.966667,-17.483333,130.966667,-17.483333,292396.5013,216.2207947,OVP,Ord Victoria Plain
11276,e885c9aa-39be-4e14-8261-68594f1c1aa2,A20692,A20692,WAM,Malurus lamberti,10,1986,114.233333,-28.15,114.233333,-28.15,4910,4.156453133,GES,Geraldton Sandplains
11752,e8aa7275-e193-4f13-bee9-a485c3cb285e,G40541,G40541,ANWC,Malurus lamberti,10,2015,132.424,-13.427,132.424,-13.427,117810,252.2875061,ARP,Arnhem Plateau
11280,e8e2f15e-beea-44a1-9add-c6a74b1e9ddb,B41643,B41643,ANWC,Malurus lamberti,10,1988,141.1333,-17.8667,141.1333,-17.8667,56528.85369,7.567935944,GUP,Gulf Plains
5479,e9a5788b-b89e-4b8a-a6b7-a70589dc3a1b,B39366,B39366,ANWC,Malurus lamberti,6,1985,150.9583,-24.3583,150.9583,-24.3583,59529.87149,752.3574219,SEQ,South Eastern Queensland
8424,EA1,A26805,A26805,WAM,Malurus lamberti  assimilis,8,1998,113.05,-25.8,113.05,-25.8,4910,59.99913025,YAL,Yalgoo
9751,EA10,A35582,A35582,WAM,Malurus lamberti  assimilis,9,2004,115.5697,-22.1197,115.5697,-22.1197,63364.82936,146.3050995,PIL,Pilbara
9752,EA11,A35583,A35583,WAM,Malurus lamberti  assimilis,9,2004,115.5697,-22.1197,115.5697,-22.1197,63364.82936,146.3050995,PIL,Pilbara
7163,EA12,A35745,A35745,WAM,Malurus lamberti  assimilis,7,2004,113.5333,-25.9,113.5333,-25.9,4910,9.095258713,CAR,Carnarvon
4587,EA13,A36181,A36181,WAM,Malurus lamberti  rogersi,5,2005,125.2,-15.1,125.2,-15.1,0,148.9687042,NOK,Northern Kimberley
4585,EA14,A36182,A36182,WAM,Malurus lamberti  rogersi,5,2005,125.2,-15.1,125.2,-15.1,0,148.9687042,NOK,Northern Kimberley
4586,EA15,A36783,A36783,WAM,Malurus lamberti  rogersi,5,2005,125.2,-15.1,125.2,-15.1,0,148.9687042,NOK,Northern Kimberley
11753,EA19,ABTC139477,ABTC139477,ABTC,Malurus lamberti,10,2008,139.5,-34.4167,139.5,-34.4167,97415.74103,89.27503967,MDD,Murray Darling Depression
8425,EA2,A26809,A26809,WAM,Malurus lamberti  assimilis,8,1998,113.05,-25.8,113.05,-25.8,4910,59.99913025,YAL,Yalgoo
12962,EA20,ABTC143564,ABTC143564,ABTC,Malurus lamberti assimilis,11,2012,137.8008,-32.4981,137.8008,-32.4981,11220,12.41429996,GAW,Gawler
9756,EA21,ABTC143581,ABTC143581,ABTC,Malurus lamberti,9,2011,137.6,-34.7667,137.6,-34.7667,14730,56.78113174,EYB,Eyre Yorke Block
2731,EA22,ABTC149363,ABTC149363,ABTC,Malurus lamberti assimilis,4,2008,131.4256,-31.5439,131.4256,-31.5439,0,28.36430931,NUL,Nullarbor
9721,EA24,UWBM 57586,UWBM 57586,BKM,Malurus lamberti,9,1996,145.5833,-30.5,145.5833,-30.5,631861.546,113.9287033,COP,Cobar Peneplain
9717,EA25,UWBM 57593,UWBM 57593,BKM,Malurus lamberti,9,1996,144.1667,-33.0333,144.1667,-33.0333,511288.135,79.42516327,RIV,Riverina
11691,EA26,UWBM 57677,UWBM 57677,BKM,Malurus lamberti,10,1996,142.4626,-32.2227,142.4626,-32.2227,427592.6683,66.88752747,DRP,Darling Riverine Plains
9744,EA27,UWBM 60752,UWBM 60752,BKM,Malurus lamberti,9,1997,120.1,-22.5667,120.1,-22.5667,280505.6007,439.859314,PIL,Pilbara
9745,EA28,UWBM 60838,UWBM 60838,BKM,Malurus lamberti,9,1997,120.1,-22.5667,120.1,-22.5667,280505.6007,439.859314,PIL,Pilbara
9734,EA29,UWBM 60841,UWBM 60841,BKM,Malurus lamberti,9,1997,120.3333,-26.6667,120.3333,-26.6667,597714.1796,495.7430115,MUR,Murchison
9453,ea38b36f-f303-4ab8-8500-227a2e710f48,O.45847,O.45847,AM,Malurus lamberti,9,1976,141.7,-31.083,141.7,-31.083,400425.8303,177.7026062,BHC,Broken Hill Complex
12933,EA50,Z44714,Z44714,NMV,Malurus lamberti  assimilis,11,2001,135.45,-32.37,135.45,-32.37,110326.2163,377.833313,GAW,Gawler
12934,EA53,Z44719,Z44719,NMV,Malurus lamberti  assimilis,11,2001,135.45,-32.37,135.45,-32.37,110326.2163,377.833313,GAW,Gawler
4243,ea535fbb-66bb-49e1-b3ba-73939be06a94,A15654,A15654,WAM,Malurus lamberti,5,1978,128.033333,-18.233333,128.033333,-18.233333,308589.0643,275.4350891,OVP,Ord Victoria Plain
8420,EA59,Z46603,Z46603,NMV,Malurus lamberti  dulcis,8,1985,125.7,-14.82,125.7,-14.82,22970.8881,113.8856964,NOK,Northern Kimberley
8421,EA62,Z46611,Z46611,NMV,Malurus lamberti  dulcis,8,1985,125.7,-14.82,125.7,-14.82,22970.8881,113.8856964,NOK,Northern Kimberley
8422,EA64,Z46617,Z46617,NMV,Malurus lamberti  dulcis,8,1985,132.13,-13.62,132.13,-13.62,143310.6908,102.1884003,PCK,Pine Creek
8423,EA71,Z46740,Z46740,NMV,Malurus lamberti  dulcis,8,1985,132.13,-13.62,132.13,-13.62,143310.6908,102.1884003,PCK,Pine Creek
12961,EA9,A35183,A35183,WAM,Malurus lamberti  assimilis,11,1992,114.6667,-28.75,114.6667,-28.75,9820,34.98936844,GES,Geraldton Sandplains
1529,eaa90a51-1d38-4f0e-8e9b-f4749dfd7a29,A20190,A20190,WAM,Malurus lamberti,3,1986,125.046111,-17.382778,125.046111,-17.382778,111994.3079,137.0834961,CEK,Central Kimberley
11298,eaac5f4b-4307-4286-81eb-4bff557868e7,A20691,A20691,WAM,Malurus lamberti,10,1986,114.166667,-27.966667,114.166667,-27.966667,4910,22.00779915,GES,Geraldton Sandplains
11304,eafc2405-7b1e-425d-985a-2e4c8b4bd38e,B46604,B46604,ANWC,Malurus lamberti,10,1994,137.1603,-35.0917,137.1603,-35.0917,14730,78.70462036,EYB,Eyre Yorke Block
11306,eb64e7f9-ed77-42be-bb44-6924f9ed77c5,B17611,B17611,ANWC,Malurus lamberti,10,1974,138.35,-29.2,138.35,-29.2,382103.9708,35.55672073,STP,Stony Plains
4250,ebc6a33f-4b1f-4371-a6f2-f1f56abfc0f3,A15640,A15640,WAM,Malurus lamberti,5,1978,130.966667,-17.483333,130.966667,-17.483333,292396.5013,216.2207947,OVP,Ord Victoria Plain
519,ec910f1d-3d68-4225-bd3c-b61bc10cef6a,A8852,A8852,WAM,Malurus lamberti,1,1960,114.666667,-28.716667,114.666667,-28.716667,9820,97.72657776,GES,Geraldton Sandplains
11705,ecd30335-0e11-4472-bc89-fee205b4ffd2,G32452,G32452,ANWC,Malurus lamberti,10,2012,152.6657,-28.4336,152.6657,-28.4336,86433.75787,455.3935852,SEQ,South Eastern Queensland
9468,ed62857c-2e25-4b21-a6db-bc319cea886e,A14273,A14273,WAM,Malurus lamberti,9,1975,123.85,-16.6,123.85,-16.6,22365.63882,109.4136963,NOK,Northern Kimberley
11735,ed749947-3d5d-4f31-8b49-f8779bcb2ec1,G40542,G40542,ANWC,Malurus lamberti,10,2015,132.427,-13.514,132.427,-13.514,129030,225.8518982,ARP,Arnhem Plateau
11684,edfe4668-3aab-45dc-98b8-203a80e37c92,ABTC113231,ABTC113231,ABTC,Malurus lamberti assimilis,10,2004,139.4794,-34.3753,139.4794,-34.3753,99176.70946,80.77060699,MDD,Murray Darling Depression
1537,ee04a38e-2d37-4453-88cf-b1445513163d,A20708,A20708,WAM,Malurus lamberti,3,1986,124.983333,-17.333333,124.983333,-17.333333,105189.6002,104.3380966,CEK,Central Kimberley
1538,ee4c78b3-2dd5-4392-a412-c6ac6436d7bc,A20185,A20185,WAM,Malurus lamberti,3,1986,124.983333,-17.333333,124.983333,-17.333333,105189.6002,104.3380966,CEK,Central Kimberley
11326,ee89985c-8bb0-4781-9702-15338123cfda,A25489,A25489,WAM,Malurus lamberti,10,1994,113.889444,-26.5925,113.889444,-26.5925,4910,19.90876007,YAL,Yalgoo
12663,eec3bfbf-056e-403c-ba92-5d4ec8549be7,B18151,B18151,ANWC,Malurus lamberti,11,1975,136.1833,-16.6,136.1833,-16.6,96917.76824,60.71355057,GFU,Gulf Fall and Uplands
4270,eecc0da9-546d-4e38-b949-5680ee39d1fa,A10413,A10413,WAM,Malurus lamberti,5,1970,132.2,-28.792222,132.2,-28.792222,313126.7617,252.8446045,GVD,Great Victoria Desert
6760,eef19b4b-974b-46a8-b726-a3c8fb2fe546,A16024,A16024,WAM,Malurus lamberti,7,1974,119.15,-23.55,119.15,-23.55,355760.4098,618.4310303,PIL,Pilbara
11747,ef06cc39-fa0a-41f0-acab-557314a098c1,G40537,G40537,ANWC,Malurus lamberti,10,2015,132.422,-13.429,132.422,-13.429,117810,202.4588013,ARP,Arnhem Plateau
6763,ef7cc2d8-3293-4679-b310-fb0d91dd3e01,B54702,B54702,ANWC,Malurus lamberti,7,2009,134.192,-14.761,134.192,-14.761,132570,56.27629089,GFU,Gulf Fall and Uplands
2531,ef7d29bd-0382-4af8-99af-a7ed13c1959d,A20433,A20433,WAM,Malurus lamberti,4,1986,128.41667,-17.55,128.41667,-17.55,234216.4729,235.8428955,OVP,Ord Victoria Plain
525,efdf2c75-95e5-4f9e-9956-7a24e9f3dadd,B18344,B18344,ANWC,Malurus lamberti,1,1976,136.2,-16.5833,136.2,-16.5833,92769.88358,101.3841019,GFU,Gulf Fall and Uplands
4276,efe7ca6b-f85f-495c-9d7b-b65cdd7454c2,B28096,B28096,ANWC,Malurus lamberti,5,1996,142.4522,-23.0297,142.4522,-23.0297,602247.3034,248.2324982,CHC,Channel Country
7133,f0e7b550-9c4f-4cdc-8a8d-a65b99b20bc3,G32172,G32172,ANWC,Malurus lamberti,7,2010,127.7076,-18.9261,127.7076,-18.9261,382269.1367,359.7543945,OVP,Ord Victoria Plain
12674,f220b7c5-6fe3-4797-ad20-0c9714aba93e,O.60870,O.60870,AM,Malurus lamberti,11,1989,149.183,-30.633,149.183,-30.633,352398.8554,240.1333008,BBS,Brigalow Belt South
8152,f24c5216-0f34-48da-8114-99c8b7004d5c,B16643,B16643,ANWC,Malurus lamberti,8,1973,139.4167,-35.0833,139.4167,-35.0833,29719.26816,79.40598297,MDD,Murray Darling Depression
12940,f276b13e-3bd8-4365-b48c-08417996e14e,G29793,G29793,ANWC,Malurus lamberti,11,2009,149.8464,-29.4706,149.8464,-29.4706,323720.9493,240.4832001,BBS,Brigalow Belt South
1546,f2df2cf0-d378-4064-8865-2091ad3d2c20,A20171,A20171,WAM,Malurus lamberti,3,1986,125.85,-16.8,125.85,-16.8,124211.1046,461.5606995,CEK,Central Kimberley
2539,f2f8904c-43f9-4f3f-a4c5-c3479210805a,A20438,A20438,WAM,Malurus lamberti,4,1986,123.933333,-16.683333,123.933333,-16.683333,22618.97434,62.53219986,NOK,Northern Kimberley
7151,f3209f65-64c8-4068-8635-ce31d3f35548,G31551,G31551,ANWC,Malurus lamberti,7,2009,133.609,-15.856,133.609,-15.856,223460.0369,180.767395,STU,Sturt Plateau
7134,f362cee4-b463-44ac-9f24-8b1cf758a755,G32174,G32174,ANWC,Malurus lamberti,7,2010,127.7076,-18.9261,127.7076,-18.9261,382269.1367,359.7543945,OVP,Ord Victoria Plain
4294,f369f32a-53e3-4f31-897f-333272c79bf5,B28647,B28647,ANWC,Malurus lamberti,5,1996,143.1986,-24.0806,143.1986,-24.0806,645776.1798,201.4172058,MGD,Mitchell Grass Downs
1548,f389fd9e-11cc-4240-a072-55baf9ef2e1e,A20191,A20191,WAM,Malurus lamberti,3,1986,125.145278,-17.182778,125.145278,-17.182778,95047.24404,251.8847961,CEK,Central Kimberley
8165,f4c8330b-cb02-4e06-a728-65c2163b27b4,B54257,B54257,ANWC,Malurus lamberti,8,2008,125.9081,-28.2997,125.9081,-28.2997,440900.5971,325.2197876,GVD,Great Victoria Desert
9500,f5775e6d-0c85-4adf-9007-9ea2c172f847,O27620,O27620,QM,Malurus lamberti,9,1986,143.016667,-19.233333,143.016667,-19.233333,307025.4304,281.0362854,GUP,Gulf Plains
5522,f6b36df1-9ea9-45c9-97e8-8c0a99ace03b,B19009,B19009,ANWC,Malurus lamberti,6,1976,134.0333,-23.75,134.0333,-23.75,891699.0149,654.3302002,MAC,MacDonnell Ranges
12947,f6f872f4-52d8-4f0f-90f0-4baff66c128f,G32357,G32357,ANWC,Malurus lamberti,11,2011,151.2915,-28.578,151.2915,-28.578,210630.9972,412.0660095,NAN,Nandewar
969,f780723b-7568-4340-bdc0-79de0804bddc,B46931,B46931,ANWC,Malurus lamberti,2,1995,153.3256,-28.6208,153.3256,-28.6208,41941.69524,262.7792969,SEQ,South Eastern Queensland
4321,f7b8dde3-cdd9-4826-b92f-c53758dbd43a,A15665,A15665,WAM,Malurus lamberti,5,1978,127.883333,-18.233333,127.883333,-18.233333,308706.2275,384.0317993,OVP,Ord Victoria Plain
7130,f7bce9d4-1cc6-488e-b80a-576a85969853,G32052,G32052,ANWC,Malurus lamberti,7,2010,126.1982,-19.189,126.1982,-19.189,329049.5514,239.9998016,GSD,Great Sandy Desert
12692,f7e79627-e403-4ef3-8452-71238eee4866,B16721,B16721,ANWC,Malurus lamberti,11,1973,137.7,-32.5167,137.7,-32.5167,12247.30583,18.11656952,GAW,Gawler
5529,f84838ea-5bcf-435d-8a11-022d7fc5121b,B17306,B17306,ANWC,Malurus lamberti,6,1974,137.6667,-17.9,137.6667,-17.9,138948.7866,175.7682037,GFU,Gulf Fall and Uplands
8178,f85ca02f-215a-4c6b-bbcd-ceedf21444d8,B54114,B54114,ANWC,Malurus lamberti,8,2008,127.3619,-28.5586,127.3619,-28.5586,380757.991,339.4086914,GVD,Great Victoria Desert
4328,f85e22c7-7f42-452f-95a3-79a4c88db3df,A15656,A15656,WAM,Malurus lamberti,5,1978,127.966667,-18.233333,127.966667,-18.233333,308550,327.0255127,OVP,Ord Victoria Plain
1551,f8680d7c-eff1-4edd-9ebb-ee1dafa8f4f3,A20159,A20159,WAM,Malurus lamberti,3,1986,126.182778,-16.3,126.182778,-16.3,148132.114,534.6223755,NOK,Northern Kimberley
11382,f89c5df7-41f5-46af-96df-fe2397c39e90,B15244,B15244,ANWC,Malurus lamberti,10,1972,132.95,-13.0833,132.95,-13.0833,102726.7682,23.8055191,ARP,Arnhem Plateau
7119,f8c88d15-9a9b-4780-8f7f-eea11880a672,G22470,G22470,ANWC,Malurus lamberti,7,1994,151.8,-32.5833,151.8,-32.5833,26842.62469,22.50778961,NNC,NSW North Coast
7149,f8dac6b2-12f8-4ad8-86e5-9e0ff4174a13,G31934,G31934,ANWC,Malurus lamberti,7,2010,127.9829,-16.429,127.9829,-16.429,106703.0281,174.842804,VIB,Victoria Bonaparte
4340,f9bb6e37-aa6f-459e-8249-d18b920b36c2,A15641,A15641,WAM,Malurus lamberti,5,1978,130.966667,-17.483333,130.966667,-17.483333,292396.5013,216.2207947,OVP,Ord Victoria Plain
9514,f9f5e639-1576-4e30-9c67-0143ef205f89,B40149,B40149,ANWC,Malurus lamberti,9,1985,139.5,-26.6833,139.5,-26.6833,685123.7384,13.10801983,CHC,Channel Country
6816,fb174219-13d5-4c74-a4da-a1ce0ce654f8,B55416,B55416,ANWC,Malurus lamberti,7,2010,128.6945,-18.1345,128.6945,-18.1345,300873.5297,337.7535095,OVP,Ord Victoria Plain
11728,fb3f6115-9c00-4aca-a358-6944ec71aec0,G40546,G40546,ANWC,Malurus lamberti,10,2015,132.456,-13.526,132.456,-13.526,129123.3867,149.0065002,ARP,Arnhem Plateau
12936,fc262a1e-821b-4f88-90e0-a7991fa970c0,ABTC85134,ABTC85134,ABTC,Malurus lamberti,11,1997,135.45,-32.3667,135.45,-32.3667,110326.2163,340.0235901,GAW,Gawler
9535,fcb3fccc-39b9-4baf-840d-b5b8246144ce,B06720,B06720,ANWC,Malurus lamberti,9,1967,137.9,-18.8333,137.9,-18.8333,221803.7011,220.0998993,MGD,Mitchell Grass Downs
6821,fcde843f-333e-4cc0-adb6-4f5dd089c7c2,B54701,B54701,ANWC,Malurus lamberti,7,2009,134.192,-14.761,134.192,-14.761,132570,56.27629089,GFU,Gulf Fall and Uplands
7150,fd19d6f5-bb03-40e4-af21-352ffe5bedb5,G31231,G31231,ANWC,Malurus lamberti,7,2009,136.544,-15.913,136.544,-15.913,17531.60004,1.403391004,GUC,Gulf Coastal
8197,fe0f6ed2-facc-446f-be95-aa3f17eab95f,B48235,B48235,ANWC,Malurus lamberti,8,1996,139.3806,-30.3228,139.3806,-30.3228,295268.8715,277.7473145,FLB,Flinders Lofty Block
9546,fe2d7964-517e-4295-b95f-15860259421a,A25443,A25443,WAM,Malurus lamberti,9,1994,113.503056,-24.222778,113.503056,-24.222778,4910,15.91561031,CAR,Carnarvon
8402,fe420cb2-392f-4430-bf3b-3d17085a7b8e,G30868,G30868,ANWC,Malurus lamberti,8,2008,128.5947,-29.5733,128.5947,-29.5733,239728.0553,210.5865021,NUL,Nullarbor
11701,fe4cd078-b454-4817-a944-f39e4a7e2b0b,G32245,G32245,ANWC,Malurus lamberti,10,2010,151.7697,-28.7205,151.7697,-28.7205,161189.2456,870.3942871,NAN,Nandewar
8201,fe690add-76a6-4869-9da7-4103225c71a5,B39175,B39175,ANWC,Malurus lamberti,8,1985,125.7083,-14.8167,125.7083,-14.8167,22970.8881,212.2579956,NOK,Northern Kimberley
12941,fe7dffb2-f5ae-4399-b920-f162d69dfb09,G29791,G29791,ANWC,Malurus lamberti,11,2009,149.8464,-29.4706,149.8464,-29.4706,323720.9493,240.4832001,BBS,Brigalow Belt South
7155,fe9fafd0-34bf-497c-b370-82ef42b76def,G31208,G31208,ANWC,Malurus lamberti,7,2009,136.469,-15.692,136.469,-15.692,0,1.574169993,GUC,Gulf Coastal
9549,fedcbb82-f55d-40a3-95db-3317ce105daf,B50537,B50537,ANWC,Malurus lamberti,9,2004,123.6261,-17.7086,123.6261,-17.7086,24494.61165,1.940161943,DAL,Dampierland
9551,ff02a0c0-659f-4ed9-8825-39f02deba995,O.59417,O.59417,AM,Malurus lamberti,9,1985,141.7,-31.083,141.7,-31.083,400425.8303,177.7026062,BHC,Broken Hill Complex
4372,ff673d22-d38f-4b22-86b3-d141b18d5200,A15609,A15609,WAM,Malurus lamberti,5,1978,130.966667,-16.516389,130.966667,-16.516389,204557.8434,101.7001038,OVP,Ord Victoria Plain
9700,SAM_0235,B57445,B57445,SAM,Malurus lamberti,9,1975,139.4677778,-35.80166667,139.4677778,-35.80166667,11220,19.43189049,NCP,Naracoorte Coastal Plain
612,SAM_0236,B57446,B57446,SAM,Malurus lamberti,1,1970,139.1683333,-35.25138889,139.1683333,-35.25138889,7455.212941,11.5971899,MDD,Murray Darling Depression
8344,SAM_0237,B57447,B57447,SAM,Malurus lamberti,8,1967,140.8013889,-35.69222222,140.8013889,-35.69222222,116361.4515,125.0322037,MDD,Murray Darling Depression
8345,SAM_0238,B57448,B57448,SAM,Malurus lamberti,8,1967,140.8013889,-35.69222222,140.8013889,-35.69222222,116361.4515,125.0322037,MDD,Murray Darling Depression
1121,SAM_0239,B57449,B57449,SAM,Malurus lamberti,2,1975,134.8833333,-33.58333333,134.8833333,-33.58333333,4910,16.86591911,EYB,Eyre Yorke Block
5670,SAM_0240,B57450,B57450,SAM,Malurus lamberti,6,2005,139.1166667,-35.23333333,139.1166667,-35.23333333,14910.42588,35.53823853,MDD,Murray Darling Depression
11647,SAM_0241,B57451,B57451,SAM,Malurus lamberti,10,2002,139.1166667,-35.18333333,139.1166667,-35.18333333,19485.41249,95.77142334,MDD,Murray Darling Depression
11648,SAM_0242,B57452,B57452,SAM,Malurus lamberti,10,1974,137.45,-32.13388889,137.45,-32.13388889,63364.82936,57.99596024,GAW,Gawler
11649,SAM_0243,B57453,B57453,SAM,Malurus lamberti,10,1976,137.1683333,-33.03361111,137.1683333,-33.03361111,29764.93575,279.7886047,GAW,Gawler
11650,SAM_0244,B57454,B57454,SAM,Malurus lamberti,10,1986,137.9833333,-32.8,137.9833333,-32.8,4910,96.25750732,FLB,Flinders Lofty Block
5671,SAM_0245,B57455,B57455,SAM,Malurus lamberti,6,1986,137.9683333,-32.81805556,137.9683333,-32.81805556,4910,39.12046051,EYB,Eyre Yorke Block
5672,SAM_0246,B57456,B57456,SAM,Malurus lamberti,6,1986,137.9683333,-32.81805556,137.9683333,-32.81805556,4910,39.12046051,EYB,Eyre Yorke Block
11651,SAM_0247,B57457,B57457,SAM,Malurus lamberti,10,1994,133.4802778,-27.33472222,133.4802778,-27.33472222,508660.5525,357.9211121,GVD,Great Victoria Desert
1122,SAM_0248,B57458,B57458,SAM,Malurus lamberti,2,2001,139.1016667,-35.16722222,139.1016667,-35.16722222,19485.41249,103.0486984,MDD,Murray Darling Depression
1123,SAM_0249,B57459,B57459,SAM,Malurus lamberti,2,1972,137.3022222,-32.50222222,137.3022222,-32.50222222,45592.15393,116.4784012,GAW,Gawler
12921,SAM_0250,B57460,B57460,SAM,Malurus lamberti,11,2000,130.3288889,-29.35833333,130.3288889,-29.35833333,248057.8322,226.2250061,GVD,Great Victoria Desert
8346,SAM_0251,B57461,B57461,SAM,Malurus lamberti,8,1973,138.1002778,-32.96694444,138.1002778,-32.96694444,11309.48717,280.1452026,FLB,Flinders Lofty Block
8347,SAM_0252,B57462,B57462,SAM,Malurus lamberti,8,1992,135.1155556,-32.30361111,135.1155556,-32.30361111,83417.48078,107.0194016,GVD,Great Victoria Desert